Date,Temp C,WindSpeed Kmph,Wind Dir 16 Point,Weather Desc,Precip MM,Humidity,Visibility,Pressure,Cloudcover,HeatIndex C,Dew Point C,WindChill C,Wind Gust Kmph,Feels Like C, UV Index 
1/1/2009 00:00,16,5,ENE,Mist,0.0,95,2,1011,5,17,17,17,10,17,1
1/1/2009 01:00,16,4,ENE,Mist,0.0,96,2,1011,7,17,16,17,9,17,1
1/1/2009 02:00,15,4,ENE,Mist,0.0,96,2,1011,8,17,16,17,8,17,1
1/1/2009 03:00,15,4,ENE,Mist,0.0,96,2,1011,10,17,16,17,8,17,1
1/1/2009 04:00,17,5,ENE,Mist,0.0,90,5,1012,6,20,17,19,8,19,1
1/1/2009 05:00,19,6,NE,Clear,0.0,83,7,1012,3,23,18,21,9,21,1
1/1/2009 06:00,22,8,NE,Clear,0.0,76,10,1013,0,26,19,24,9,24,1
1/1/2009 07:00,23,9,NE,Sunny,0.0,68,10,1013,2,26,18,25,10,26,1
1/1/2009 08:00,25,10,NE,Sunny,0.0,59,10,1012,3,27,17,26,12,27,1
1/1/2009 09:00,27,11,NE,Sunny,0.0,51,10,1012,5,28,16,27,13,28,1
1/1/2009 10:00,27,11,NE,Sunny,0.0,49,10,1011,9,28,16,28,13,28,1
1/1/2009 11:00,28,12,NE,Sunny,0.0,48,10,1011,13,28,16,28,13,28,1
1/1/2009 12:00,28,12,NE,Sunny,0.0,46,10,1010,17,28,15,28,14,28,1
1/1/2009 13:00,26,10,NE,Sunny,0.0,53,10,1010,13,27,16,27,12,27,1
1/1/2009 14:00,25,8,ENE,Sunny,0.0,60,10,1010,9,26,17,25,11,26,1
1/1/2009 15:00,23,6,ENE,Sunny,0.0,68,10,1010,5,25,17,24,10,25,1
1/1/2009 16:00,22,6,ENE,Sunny,0.0,72,10,1011,4,25,18,23,10,23,1
1/1/2009 17:00,21,7,ENE,Sunny,0.0,77,10,1011,2,25,18,22,11,22,1
1/1/2009 18:00,19,8,ENE,Sunny,0.0,81,10,1012,0,24,18,21,12,21,1
1/1/2009 19:00,18,7,ENE,Clear,0.0,85,10,1012,0,22,18,20,12,20,1
1/1/2009 20:00,17,6,E,Clear,0.0,89,10,1012,0,20,17,19,12,19,1
1/1/2009 21:00,16,6,E,Clear,0.0,93,10,1013,0,18,17,18,12,18,1
1/1/2009 22:00,16,6,E,Clear,0.0,93,10,1012,0,18,17,18,11,18,1
1/1/2009 23:00,16,6,E,Clear,0.0,92,10,1012,0,19,17,19,11,19,1
2/1/2009 00:00,15,6,E,Clear,0.0,92,10,1011,0,19,17,19,10,19,1
2/1/2009 01:00,15,6,E,Clear,0.0,93,7,1011,0,18,17,18,10,18,1
2/1/2009 02:00,15,5,E,Mist,0.0,94,5,1012,0,18,17,18,10,18,1
2/1/2009 03:00,15,5,ENE,Mist,0.0,94,2,1012,0,18,17,18,9,18,1
2/1/2009 04:00,17,6,ENE,Mist,0.0,87,5,1012,0,21,18,20,9,20,1
2/1/2009 05:00,19,6,ENE,Clear,0.0,80,7,1013,0,23,18,22,9,22,1
2/1/2009 06:00,22,7,ENE,Clear,0.0,73,10,1014,0,26,19,24,8,24,1
2/1/2009 07:00,24,7,NE,Sunny,0.0,64,10,1013,2,27,18,26,9,27,1
2/1/2009 08:00,26,8,NE,Sunny,0.0,55,10,1013,3,28,17,27,9,28,1
2/1/2009 09:00,28,8,NE,Sunny,0.0,46,10,1013,5,29,16,29,9,29,1
2/1/2009 10:00,28,9,NE,Sunny,0.0,45,10,1012,8,29,16,29,10,29,1
2/1/2009 11:00,28,9,NE,Sunny,0.0,44,10,1011,12,29,16,29,11,29,1
2/1/2009 12:00,29,10,NE,Sunny,0.0,43,10,1011,15,30,16,29,11,30,1
2/1/2009 13:00,27,9,NE,Sunny,0.0,52,10,1011,15,28,16,27,11,28,1
2/1/2009 14:00,25,8,NE,Sunny,0.0,61,10,1011,15,27,17,25,11,27,1
2/1/2009 15:00,23,6,ENE,Sunny,0.0,69,10,1011,15,25,18,24,12,25,1
2/1/2009 16:00,22,7,ENE,Sunny,0.0,74,10,1011,13,24,18,23,12,23,1
2/1/2009 17:00,21,7,ENE,Sunny,0.0,78,10,1012,11,22,18,22,12,22,1
2/1/2009 18:00,20,7,ENE,Sunny,0.0,83,10,1012,10,21,18,21,12,21,1
2/1/2009 19:00,19,7,ENE,Clear,0.0,86,10,1013,10,20,18,20,12,20,1
2/1/2009 20:00,19,7,ENE,Clear,0.0,89,10,1013,10,19,17,19,13,19,1
2/1/2009 21:00,18,6,NE,Clear,0.0,92,10,1013,10,19,17,19,13,19,1
2/1/2009 22:00,17,6,ENE,Clear,0.0,93,7,1013,10,18,17,18,13,18,1
2/1/2009 23:00,17,6,ENE,Mist,0.0,94,5,1013,10,18,17,18,12,18,1
3/1/2009 00:00,17,6,ENE,Mist,0.0,95,2,1012,9,18,17,18,12,18,1
3/1/2009 01:00,16,6,ENE,Mist,0.0,95,2,1012,8,18,17,18,11,18,1
3/1/2009 02:00,16,5,ENE,Mist,0.0,96,2,1012,8,17,17,17,10,17,1
3/1/2009 03:00,16,4,ENE,Mist,0.0,96,2,1013,7,17,17,17,9,17,1
3/1/2009 04:00,18,5,ENE,Mist,0.0,88,5,1013,6,20,17,19,8,19,1
3/1/2009 05:00,20,6,ENE,Clear,0.0,80,7,1014,4,23,18,21,8,21,1
3/1/2009 06:00,22,6,ENE,Clear,0.0,72,10,1015,3,25,18,24,7,24,1
3/1/2009 07:00,24,6,NE,Sunny,0.0,62,10,1014,5,27,17,25,7,27,1
3/1/2009 08:00,26,6,NNE,Sunny,0.0,52,10,1014,7,28,16,27,7,28,1
3/1/2009 09:00,28,6,N,Sunny,0.0,42,10,1014,9,29,15,29,7,29,1
3/1/2009 10:00,28,6,N,Sunny,0.0,42,10,1013,11,29,15,29,7,29,1
3/1/2009 11:00,28,6,N,Sunny,0.0,41,10,1012,13,29,15,29,7,29,1
3/1/2009 12:00,29,6,N,Sunny,0.0,41,10,1011,15,29,15,29,7,29,1
3/1/2009 13:00,27,6,NNE,Sunny,0.0,48,10,1011,17,28,15,28,8,28,1
3/1/2009 14:00,25,6,NNE,Sunny,0.0,55,10,1011,19,27,16,26,9,27,1
3/1/2009 15:00,23,5,NNE,Sunny,0.0,62,10,1011,22,25,16,24,10,25,1
3/1/2009 16:00,23,6,NNE,Sunny,0.0,68,10,1012,25,25,17,23,10,25,1
3/1/2009 17:00,22,6,NE,Partly cloudy,0.0,73,10,1012,29,25,17,22,11,22,1
3/1/2009 18:00,21,6,NE,Partly cloudy,0.0,78,10,1013,33,24,17,21,11,21,1
3/1/2009 19:00,20,7,NE,Partly cloudy,0.0,83,10,1013,34,23,17,21,13,21,1
3/1/2009 20:00,20,8,ENE,Partly cloudy,0.0,87,10,1013,35,21,18,20,15,20,1
3/1/2009 21:00,19,9,ENE,Partly cloudy,0.0,92,10,1013,36,19,18,19,18,19,1
3/1/2009 22:00,19,8,ENE,Partly cloudy,0.0,94,7,1013,40,19,18,19,16,19,1
3/1/2009 23:00,18,7,ENE,Mist,0.0,95,5,1013,45,19,18,19,14,19,1
4/1/2009 00:00,18,6,ENE,Mist,0.0,97,2,1012,49,19,18,19,12,19,1
4/1/2009 01:00,18,6,ENE,Mist,0.0,97,1,1012,66,19,18,19,10,19,1
4/1/2009 02:00,18,5,ENE,Fog,0.0,98,1,1012,83,19,18,19,8,19,1
4/1/2009 03:00,19,4,ENE,Fog,0.0,99,0,1012,100,19,19,19,6,19,1
4/1/2009 04:00,20,5,ENE,Fog,0.0,93,3,1013,73,21,19,20,7,20,1
4/1/2009 05:00,21,6,ENE,Clear,0.0,87,7,1013,47,23,19,22,8,22,1
4/1/2009 06:00,22,7,ENE,Clear,0.0,81,10,1013,20,25,19,23,8,25,1
4/1/2009 07:00,24,7,NE,Sunny,0.0,72,10,1013,18,27,19,25,8,27,1
4/1/2009 08:00,26,7,NNE,Sunny,0.0,63,10,1013,16,28,19,27,8,28,1
4/1/2009 09:00,28,7,N,Sunny,0.0,55,10,1013,15,30,19,29,8,30,1
4/1/2009 10:00,28,8,N,Sunny,0.0,53,10,1012,20,30,18,29,9,30,1
4/1/2009 11:00,28,9,NNE,Partly cloudy,0.0,52,10,1011,26,30,18,29,10,30,1
4/1/2009 12:00,29,10,NNE,Partly cloudy,0.0,51,10,1010,32,30,18,29,11,30,1
4/1/2009 13:00,27,8,NNE,Partly cloudy,0.0,60,10,1010,40,28,18,27,11,28,1
4/1/2009 14:00,25,7,NE,Partly cloudy,0.0,69,10,1010,47,27,19,25,10,27,1
4/1/2009 15:00,23,6,NE,Partly cloudy,0.0,78,10,1009,55,25,19,23,9,25,1
4/1/2009 16:00,22,7,NE,Partly cloudy,0.0,82,10,1010,46,25,19,23,11,25,1
4/1/2009 17:00,22,7,ENE,Partly cloudy,0.0,85,10,1011,36,25,19,22,12,22,1
4/1/2009 18:00,21,8,ENE,Partly cloudy,0.0,89,10,1011,27,24,19,21,13,21,1
4/1/2009 19:00,21,8,ENE,Partly cloudy,0.0,91,7,1011,29,23,19,21,13,21,1
4/1/2009 20:00,20,8,ENE,Mist,0.0,93,5,1011,31,21,19,20,13,20,1
4/1/2009 21:00,20,8,ENE,Mist,0.0,95,2,1012,33,20,19,20,14,20,1
4/1/2009 22:00,19,7,ENE,Mist,0.0,96,1,1011,56,20,19,20,13,20,1
4/1/2009 23:00,19,7,ENE,Fog,0.0,97,1,1011,78,19,19,19,12,19,1
5/1/2009 00:00,18,6,ENE,Fog,0.0,98,0,1010,100,19,18,19,11,19,1
5/1/2009 01:00,18,6,ENE,Fog,0.0,98,0,1010,100,19,18,19,10,19,1
5/1/2009 02:00,18,5,ENE,Fog,0.0,98,0,1010,100,19,18,19,9,19,1
5/1/2009 03:00,18,4,ENE,Fog,0.0,98,0,1010,100,19,18,19,8,19,1
5/1/2009 04:00,20,5,ENE,Fog,0.0,92,3,1011,72,21,19,20,8,20,1
5/1/2009 05:00,21,6,NE,Clear,0.0,87,7,1011,44,23,19,21,8,21,1
5/1/2009 06:00,22,7,NE,Clear,0.0,81,10,1012,15,25,20,23,8,25,1
5/1/2009 07:00,24,8,NE,Sunny,0.0,73,10,1011,16,27,19,25,10,27,1
5/1/2009 08:00,26,10,NE,Sunny,0.0,64,10,1011,17,28,19,26,11,28,1
5/1/2009 09:00,28,11,NE,Sunny,0.0,55,10,1011,18,30,18,28,13,30,1
5/1/2009 10:00,27,10,NE,Sunny,0.0,58,10,1010,33,29,19,28,13,29,1
5/1/2009 11:00,27,10,NNE,Partly cloudy,0.0,61,10,1010,47,29,19,27,12,29,1
5/1/2009 12:00,26,9,NNE,Partly cloudy,0.0,63,10,1009,62,28,19,27,12,28,1
5/1/2009 13:00,25,9,NNE,Partly cloudy,0.0,68,10,1009,59,27,19,26,13,27,1
5/1/2009 14:00,24,9,NE,Partly cloudy,0.0,72,10,1009,57,26,19,25,14,26,1
5/1/2009 15:00,24,9,NE,Partly cloudy,0.0,77,10,1009,55,26,19,24,15,26,1
5/1/2009 16:00,23,9,NE,Partly cloudy,0.0,81,10,1009,59,25,20,23,14,25,1
5/1/2009 17:00,22,8,ENE,Cloudy,0.0,85,10,1010,63,25,20,22,13,25,1
5/1/2009 18:00,21,8,ENE,Cloudy,0.0,90,10,1011,67,24,20,22,12,22,1
5/1/2009 19:00,21,7,ENE,Cloudy,0.0,91,7,1011,57,23,20,21,12,21,1
5/1/2009 20:00,21,7,ENE,Mist,0.0,93,5,1011,47,22,20,21,11,21,1
5/1/2009 21:00,20,6,NE,Mist,0.0,94,2,1011,36,21,20,21,10,21,1
5/1/2009 22:00,20,5,ENE,Mist,0.0,95,2,1011,37,20,20,20,9,20,1
5/1/2009 23:00,19,4,ENE,Mist,0.0,96,2,1010,37,20,19,20,8,20,1
6/1/2009 00:00,19,4,ENE,Mist,0.0,97,2,1010,37,20,19,20,7,20,1
6/1/2009 01:00,19,3,ENE,Mist,0.0,97,2,1010,48,20,19,20,6,20,1
6/1/2009 02:00,19,3,NE,Mist,0.0,97,2,1010,59,19,19,19,6,19,1
6/1/2009 03:00,19,3,NE,Mist,0.0,97,2,1010,71,19,19,19,5,19,1
6/1/2009 04:00,20,3,NE,Mist,0.0,93,5,1011,68,21,19,20,6,20,1
6/1/2009 05:00,21,4,NE,Cloudy,0.0,89,7,1011,66,23,20,22,6,22,1
6/1/2009 06:00,22,5,NE,Cloudy,0.0,84,10,1012,63,25,20,23,7,25,1
6/1/2009 07:00,24,5,NE,Cloudy,0.0,80,10,1012,64,26,20,24,6,26,1
6/1/2009 08:00,25,4,NE,Cloudy,0.0,75,10,1012,65,27,20,25,5,27,1
6/1/2009 09:00,26,4,NE,Cloudy,0.0,70,10,1012,66,29,21,27,4,29,1
6/1/2009 10:00,26,4,NE,Cloudy,0.0,73,10,1011,59,28,21,26,6,28,1
6/1/2009 11:00,25,5,NE,Light rain shower,0.6,76,10,1010,52,28,21,26,7,28,1
6/1/2009 12:00,25,6,NE,Light rain shower,0.8,79,10,1010,45,27,21,25,9,27,1
6/1/2009 13:00,24,6,ENE,Light rain shower,0.4,84,7,1010,56,26,21,24,9,26,1
6/1/2009 14:00,23,7,ENE,Mist,0.0,89,5,1010,67,25,21,23,10,25,1
6/1/2009 15:00,22,7,E,Mist,0.0,95,2,1010,78,25,21,22,11,22,1
6/1/2009 16:00,22,7,E,Mist,0.0,95,4,1010,75,24,21,22,10,22,1
6/1/2009 17:00,21,6,E,Patchy light rain,0.5,96,7,1011,71,24,21,22,10,22,1
6/1/2009 18:00,21,5,E,Patchy light rain,0.7,97,9,1011,68,24,21,22,9,22,1
6/1/2009 19:00,21,5,E,Patchy light rain,0.4,97,7,1012,67,24,21,21,9,21,1
6/1/2009 20:00,21,5,E,Mist,0.0,97,4,1012,67,24,21,21,8,21,1
6/1/2009 21:00,21,5,E,Mist,0.0,97,2,1012,66,24,21,21,8,21,1
6/1/2009 22:00,21,5,E,Mist,0.0,97,4,1012,61,24,21,21,8,21,1
6/1/2009 23:00,21,5,ESE,Patchy light rain,0.6,97,7,1011,55,24,21,21,8,21,1
7/1/2009 00:00,21,5,ESE,Patchy light rain,0.8,97,9,1011,49,24,21,21,8,21,1
7/1/2009 01:00,21,5,E,Patchy light rain,0.4,96,7,1011,59,23,21,21,9,21,1
7/1/2009 02:00,21,6,E,Mist,0.0,96,4,1011,69,22,20,21,10,21,1
7/1/2009 03:00,20,6,E,Mist,0.0,96,2,1011,79,21,20,21,10,21,1
7/1/2009 04:00,21,6,E,Mist,0.0,94,5,1012,73,22,20,21,10,21,1
7/1/2009 05:00,22,6,E,Partly cloudy,0.0,92,7,1012,67,23,21,22,9,22,1
7/1/2009 06:00,22,6,E,Partly cloudy,0.0,90,10,1012,61,25,21,23,8,25,1
7/1/2009 07:00,24,7,E,Partly cloudy,0.0,82,10,1012,50,26,20,24,9,26,1
7/1/2009 08:00,25,8,ENE,Partly cloudy,0.0,74,10,1012,39,27,20,25,9,27,1
7/1/2009 09:00,26,9,ENE,Partly cloudy,0.0,65,10,1012,27,29,20,27,10,29,1
7/1/2009 10:00,26,7,ENE,Partly cloudy,0.0,70,10,1011,30,28,20,26,9,28,1
7/1/2009 11:00,25,6,ENE,Patchy rain possible,0.3,75,9,1011,34,27,21,25,7,27,1
7/1/2009 12:00,24,4,ENE,Patchy rain possible,0.3,80,9,1011,37,26,21,25,6,26,1
7/1/2009 13:00,24,4,ENE,Patchy rain possible,0.2,83,9,1011,37,26,21,24,6,26,1
7/1/2009 14:00,23,4,ENE,Partly cloudy,0.0,85,10,1011,37,26,21,24,6,26,1
7/1/2009 15:00,23,4,ENE,Partly cloudy,0.0,88,10,1011,37,26,21,23,5,26,1
7/1/2009 16:00,22,4,ENE,Partly cloudy,0.0,90,10,1011,31,25,21,23,7,25,1
7/1/2009 17:00,21,5,ENE,Patchy rain possible,0.2,93,9,1012,24,25,21,22,9,22,1
7/1/2009 18:00,21,6,ENE,Patchy rain possible,0.3,95,9,1013,18,24,20,21,11,21,1
7/1/2009 19:00,20,7,E,Patchy rain possible,0.1,96,6,1013,45,23,20,21,13,21,1
7/1/2009 20:00,20,8,E,Fog,0.0,96,3,1013,73,21,20,20,16,20,1
7/1/2009 21:00,19,9,E,Fog,0.0,97,0,1013,100,20,19,20,18,20,1
7/1/2009 22:00,19,8,E,Fog,0.0,97,0,1013,100,19,19,19,17,19,1
7/1/2009 23:00,19,8,E,Fog,0.0,97,0,1012,100,19,19,19,15,19,1
8/1/2009 00:00,19,7,E,Fog,0.0,98,0,1012,100,19,18,19,14,19,1
8/1/2009 01:00,19,8,E,Fog,0.0,97,1,1012,90,19,18,19,16,19,1
8/1/2009 02:00,19,9,E,Mist,0.0,97,1,1012,80,19,18,19,18,19,1
8/1/2009 03:00,19,9,ESE,Mist,0.0,97,2,1012,69,19,18,19,19,19,1
8/1/2009 04:00,20,9,E,Mist,0.0,92,5,1013,56,21,19,20,16,20,1
8/1/2009 05:00,21,8,E,Partly cloudy,0.0,87,7,1013,43,23,19,22,13,22,1
8/1/2009 06:00,22,8,E,Partly cloudy,0.0,83,10,1014,30,25,20,23,10,25,1
8/1/2009 07:00,24,9,ENE,Partly cloudy,0.0,74,10,1014,32,27,19,25,11,27,1
8/1/2009 08:00,26,10,NE,Partly cloudy,0.0,65,10,1014,35,28,19,26,12,28,1
8/1/2009 09:00,28,11,NE,Partly cloudy,0.0,56,10,1014,37,29,19,28,13,29,1
8/1/2009 10:00,27,11,NE,Partly cloudy,0.0,62,10,1013,37,29,19,27,14,29,1
8/1/2009 11:00,26,11,NE,Patchy rain possible,0.5,69,9,1012,37,28,20,26,15,28,1
8/1/2009 12:00,25,11,ENE,Patchy rain possible,0.7,75,9,1012,37,27,21,25,16,27,1
8/1/2009 13:00,24,10,ENE,Patchy rain possible,0.4,79,9,1012,43,27,21,25,15,27,1
8/1/2009 14:00,23,10,ENE,Partly cloudy,0.0,84,10,1012,49,26,21,24,14,26,1
8/1/2009 15:00,23,9,ENE,Partly cloudy,0.0,88,10,1012,55,25,21,23,14,25,1
8/1/2009 16:00,22,9,ENE,Partly cloudy,0.0,90,10,1012,57,25,21,22,14,25,1
8/1/2009 17:00,22,10,ENE,Light rain shower,0.2,92,10,1013,60,25,21,22,15,22,1
8/1/2009 18:00,21,10,ENE,Light rain shower,0.2,94,10,1013,63,24,20,21,16,21,1
8/1/2009 19:00,21,10,ENE,Light rain shower,0.1,94,7,1014,64,24,20,21,16,21,1
8/1/2009 20:00,21,10,ENE,Mist,0.0,94,5,1014,66,24,20,21,16,21,1
8/1/2009 21:00,21,10,ENE,Mist,0.0,95,2,1014,68,24,20,21,16,21,1
8/1/2009 22:00,21,10,ENE,Mist,0.0,95,4,1014,73,24,20,21,15,21,1
8/1/2009 23:00,21,10,ENE,Light rain,0.3,95,7,1013,79,24,20,21,15,21,1
9/1/2009 00:00,21,9,ENE,Light rain,0.5,95,9,1013,84,24,20,21,14,21,1
9/1/2009 01:00,21,10,ENE,Light rain,0.2,95,7,1013,84,24,20,21,16,21,1
9/1/2009 02:00,21,11,ENE,Mist,0.0,95,4,1013,83,24,20,21,18,21,1
9/1/2009 03:00,21,12,ENE,Mist,0.0,96,2,1013,83,24,20,21,19,21,1
9/1/2009 04:00,21,12,ENE,Mist,0.0,95,4,1013,79,24,21,21,18,21,1
9/1/2009 05:00,22,11,ENE,Patchy light rain,0.3,93,7,1013,75,24,21,22,16,22,1
9/1/2009 06:00,22,10,ENE,Patchy light rain,0.4,92,9,1014,70,25,21,22,15,22,1
9/1/2009 07:00,23,11,ENE,Patchy light rain,0.2,90,9,1014,74,25,21,23,15,25,1
9/1/2009 08:00,23,12,ENE,Cloudy,0.0,87,10,1014,77,26,21,23,15,26,1
9/1/2009 09:00,24,13,ENE,Cloudy,0.0,85,10,1014,80,26,21,24,16,26,1
9/1/2009 10:00,24,12,NE,Cloudy,0.0,86,9,1013,83,26,21,24,16,26,1
9/1/2009 11:00,24,11,NE,Moderate or heavy rain shower,0.9,87,8,1013,85,26,22,24,16,26,1
9/1/2009 12:00,24,10,NE,Moderate or heavy rain shower,1.2,87,7,1012,87,26,22,24,16,26,1
9/1/2009 13:00,23,9,NE,Moderate or heavy rain shower,0.6,90,5,1012,85,26,22,23,14,26,1
9/1/2009 14:00,23,9,NE,Mist,0.0,93,4,1012,83,25,22,23,13,25,1
9/1/2009 15:00,22,8,NE,Mist,0.0,96,2,1012,82,25,21,22,11,22,1
9/1/2009 16:00,22,7,NE,Mist,0.0,97,4,1013,86,25,21,22,11,22,1
9/1/2009 17:00,21,7,NE,Moderate rain,1.4,97,5,1013,90,24,21,22,11,22,1
9/1/2009 18:00,21,7,NE,Moderate rain,1.8,98,7,1014,94,24,21,21,11,21,1
9/1/2009 19:00,21,7,NE,Moderate rain,0.9,98,5,1014,96,24,21,21,10,21,1
9/1/2009 20:00,21,6,NE,Fog,0.0,99,2,1014,98,24,21,21,10,21,1
9/1/2009 21:00,21,6,ENE,Fog,0.0,99,0,1014,100,24,21,21,9,21,1
9/1/2009 22:00,21,7,ENE,Fog,0.0,99,2,1013,100,24,21,21,11,21,1
9/1/2009 23:00,21,7,ENE,Heavy rain,4.8,99,3,1013,100,24,21,21,13,21,1
10/1/2009 00:00,21,8,ENE,Heavy rain,6.4,99,5,1012,100,24,21,21,16,21,1
10/1/2009 01:00,21,9,ENE,Heavy rain,3.2,99,3,1013,100,23,21,21,16,21,1
10/1/2009 02:00,21,9,NE,Fog,0.0,99,2,1013,100,22,21,21,16,21,1
10/1/2009 03:00,21,10,NE,Fog,0.0,99,0,1013,100,21,21,21,16,21,1
10/1/2009 04:00,21,9,NE,Fog,0.0,98,3,1014,96,22,21,21,14,21,1
10/1/2009 05:00,21,9,NE,Light rain,0.8,98,6,1014,93,23,21,21,13,21,1
10/1/2009 06:00,21,8,ENE,Light rain,1.1,98,9,1015,89,24,21,21,12,21,1
10/1/2009 07:00,22,9,ENE,Light rain,0.5,96,9,1015,88,25,21,22,11,22,1
10/1/2009 08:00,22,9,NE,Cloudy,0.0,94,10,1015,87,25,22,23,11,25,1
10/1/2009 09:00,23,9,NE,Cloudy,0.0,92,10,1015,86,26,22,23,10,26,1
10/1/2009 10:00,23,9,NE,Cloudy,0.0,92,10,1014,84,26,22,23,11,26,1
10/1/2009 11:00,23,10,NE,Cloudy,0.0,91,10,1013,82,26,22,23,12,26,1
10/1/2009 12:00,23,10,NE,Cloudy,0.0,91,10,1012,80,26,22,24,12,26,1
10/1/2009 13:00,23,10,ENE,Cloudy,0.0,93,7,1012,82,25,22,23,14,25,1
10/1/2009 14:00,22,11,ENE,Mist,0.0,94,5,1012,83,25,21,22,15,25,1
10/1/2009 15:00,22,11,ENE,Mist,0.0,96,2,1012,84,24,21,22,16,22,1
10/1/2009 16:00,21,10,ENE,Mist,0.0,97,1,1012,89,23,21,21,16,21,1
10/1/2009 17:00,21,9,ENE,Fog,0.0,97,1,1013,95,22,20,21,15,21,1
10/1/2009 18:00,21,9,ENE,Fog,0.0,97,0,1013,100,21,20,21,14,21,1
10/1/2009 19:00,20,10,ENE,Fog,0.0,97,3,1013,81,20,20,20,16,20,1
10/1/2009 20:00,20,11,ENE,Partly cloudy,0.0,97,7,1014,62,20,20,20,19,20,1
10/1/2009 21:00,20,13,E,Partly cloudy,0.0,97,10,1014,44,20,19,20,22,20,1
10/1/2009 22:00,20,11,E,Partly cloudy,0.0,97,7,1013,62,20,19,20,19,20,1
10/1/2009 23:00,19,10,E,Fog,0.0,98,3,1013,81,19,19,19,17,19,1
11/1/2009 00:00,19,8,ENE,Fog,0.0,98,0,1012,100,19,19,19,14,19,1
11/1/2009 01:00,19,8,ENE,Fog,0.0,98,0,1012,100,19,19,19,14,19,1
11/1/2009 02:00,19,8,ENE,Fog,0.0,98,0,1013,100,19,18,19,14,19,1
11/1/2009 03:00,18,8,ENE,Fog,0.0,98,0,1013,100,19,18,19,14,19,1
11/1/2009 04:00,20,8,ENE,Fog,0.0,94,3,1013,70,21,19,20,13,20,1
11/1/2009 05:00,21,9,ENE,Clear,0.0,91,7,1014,40,23,19,21,13,21,1
11/1/2009 06:00,22,10,ENE,Clear,0.0,87,10,1014,10,25,20,22,12,22,1
11/1/2009 07:00,24,10,ENE,Sunny,0.0,77,10,1014,12,26,19,24,12,26,1
11/1/2009 08:00,25,9,ENE,Sunny,0.0,68,10,1014,13,27,19,26,11,27,1
11/1/2009 09:00,27,9,ENE,Sunny,0.0,59,10,1015,15,29,19,27,11,29,1
11/1/2009 10:00,27,11,NE,Sunny,0.0,58,10,1014,17,29,18,27,12,29,1
11/1/2009 11:00,27,12,NE,Sunny,0.0,57,10,1013,20,29,18,28,14,29,1
11/1/2009 12:00,28,14,NE,Sunny,0.0,56,10,1012,22,29,18,28,16,29,1
11/1/2009 13:00,26,12,NE,Sunny,0.0,62,10,1012,18,28,19,27,15,28,1
11/1/2009 14:00,25,10,NE,Sunny,0.0,68,10,1012,14,27,19,26,14,27,1
11/1/2009 15:00,24,9,NE,Sunny,0.0,74,10,1012,10,26,20,25,13,26,1
11/1/2009 16:00,23,9,NE,Sunny,0.0,80,10,1013,12,24,19,23,14,24,1
11/1/2009 17:00,21,9,ENE,Sunny,0.0,86,10,1013,14,22,19,22,14,22,1
11/1/2009 18:00,20,9,ENE,Sunny,0.0,92,10,1014,17,21,19,21,15,21,1
11/1/2009 19:00,20,9,ENE,Clear,0.0,94,7,1014,22,20,19,20,15,20,1
11/1/2009 20:00,19,9,ENE,Mist,0.0,95,5,1015,27,20,19,20,15,20,1
11/1/2009 21:00,19,9,ENE,Mist,0.0,96,2,1015,32,19,19,19,15,19,1
11/1/2009 22:00,19,8,ENE,Mist,0.0,97,1,1014,55,19,18,19,15,19,1
11/1/2009 23:00,19,8,ENE,Fog,0.0,97,1,1014,77,19,18,19,14,19,1
12/1/2009 00:00,18,8,ENE,Fog,0.0,97,0,1013,100,19,18,19,13,19,1
12/1/2009 01:00,18,10,ENE,Fog,0.0,97,3,1014,78,19,18,19,18,19,1
12/1/2009 02:00,18,12,ENE,Partly cloudy,0.0,97,7,1014,55,18,18,18,22,18,1
12/1/2009 03:00,18,15,ENE,Partly cloudy,0.0,97,10,1014,33,18,18,18,27,18,1
12/1/2009 04:00,19,14,ENE,Partly cloudy,0.0,91,10,1014,25,20,18,19,23,19,1
12/1/2009 05:00,21,14,ENE,Clear,0.0,85,10,1015,17,22,18,21,20,21,1
12/1/2009 06:00,22,13,ENE,Clear,0.0,80,10,1015,10,24,18,22,16,22,1
12/1/2009 07:00,23,15,ENE,Sunny,0.0,73,10,1015,12,25,18,23,18,25,1
12/1/2009 08:00,25,16,ENE,Sunny,0.0,67,10,1015,14,26,18,25,19,26,1
12/1/2009 09:00,26,18,NE,Sunny,0.0,61,10,1015,16,27,18,26,20,27,1
12/1/2009 10:00,26,18,NE,Sunny,0.0,61,10,1015,17,27,18,26,20,27,1
12/1/2009 11:00,26,18,NE,Sunny,0.0,61,10,1014,18,28,18,26,20,28,1
12/1/2009 12:00,26,18,NE,Sunny,0.0,61,10,1013,18,28,18,26,20,28,1
12/1/2009 13:00,25,15,ENE,Sunny,0.0,68,10,1013,22,27,19,25,18,27,1
12/1/2009 14:00,24,12,E,Partly cloudy,0.0,75,10,1013,26,26,19,24,15,26,1
12/1/2009 15:00,22,9,E,Partly cloudy,0.0,82,10,1013,30,25,19,23,13,25,1
12/1/2009 16:00,22,9,E,Partly cloudy,0.0,85,10,1013,36,23,19,22,13,22,1
12/1/2009 17:00,21,9,ENE,Partly cloudy,0.0,89,10,1014,41,22,19,21,14,21,1
12/1/2009 18:00,20,9,ENE,Partly cloudy,0.0,93,10,1014,47,20,19,20,14,20,1
12/1/2009 19:00,20,9,ENE,Partly cloudy,0.0,94,7,1015,52,20,19,20,14,20,1
12/1/2009 20:00,20,8,ENE,Mist,0.0,95,5,1015,58,20,19,20,13,20,1
12/1/2009 21:00,19,8,ENE,Mist,0.0,96,2,1015,64,20,19,20,12,20,1
12/1/2009 22:00,19,8,ENE,Mist,0.0,96,2,1015,64,20,19,20,12,20,1
12/1/2009 23:00,19,8,ENE,Mist,0.0,96,2,1015,64,20,19,20,12,20,1
13/1/2009 00:00,19,8,ENE,Mist,0.0,96,2,1014,65,20,19,20,11,20,1
13/1/2009 01:00,20,8,ENE,Mist,0.0,97,2,1014,67,20,19,20,11,20,1
13/1/2009 02:00,20,8,NE,Mist,0.0,97,2,1014,69,20,19,20,12,20,1
13/1/2009 03:00,20,8,NE,Mist,0.0,97,2,1014,71,20,19,20,12,20,1
13/1/2009 04:00,20,9,NE,Mist,0.0,95,5,1015,75,20,19,20,13,20,1
13/1/2009 05:00,20,10,NE,Cloudy,0.0,93,7,1015,78,21,20,21,14,21,1
13/1/2009 06:00,21,11,NE,Cloudy,0.0,92,10,1016,82,21,20,21,15,21,1
13/1/2009 07:00,22,12,NE,Cloudy,0.0,89,10,1016,75,22,20,22,16,22,1
13/1/2009 08:00,22,14,NE,Partly cloudy,0.0,85,10,1016,68,24,20,22,18,24,1
13/1/2009 09:00,23,16,NE,Partly cloudy,0.0,82,10,1016,61,25,20,23,19,25,1
13/1/2009 10:00,24,16,NE,Partly cloudy,0.0,79,10,1015,52,26,20,24,19,26,1
13/1/2009 11:00,24,16,NE,Partly cloudy,0.0,75,10,1014,44,26,20,24,19,26,1
13/1/2009 12:00,25,17,ENE,Partly cloudy,0.0,72,10,1014,35,26,19,25,19,26,1
13/1/2009 13:00,24,15,ENE,Partly cloudy,0.0,77,10,1013,43,26,20,24,18,26,1
13/1/2009 14:00,23,13,ENE,Partly cloudy,0.0,82,10,1013,50,25,20,23,17,25,1
13/1/2009 15:00,22,12,ENE,Partly cloudy,0.0,87,10,1013,58,25,20,22,17,22,1
13/1/2009 16:00,21,11,ENE,Partly cloudy,0.0,89,10,1014,56,23,20,22,16,22,1
13/1/2009 17:00,21,11,ENE,Partly cloudy,0.0,91,10,1014,53,22,20,21,16,21,1
13/1/2009 18:00,20,10,ENE,Partly cloudy,0.0,94,10,1015,51,21,19,21,16,21,1
13/1/2009 19:00,20,11,ENE,Partly cloudy,0.0,94,7,1015,54,20,19,20,17,20,1
13/1/2009 20:00,20,11,ENE,Mist,0.0,95,5,1015,57,20,19,20,18,20,1
13/1/2009 21:00,20,12,ENE,Mist,0.0,95,2,1015,60,20,19,20,19,20,1
13/1/2009 22:00,20,11,ENE,Mist,0.0,95,2,1015,61,20,19,20,18,20,1
13/1/2009 23:00,20,11,ENE,Mist,0.0,95,2,1014,62,20,19,20,17,20,1
14/1/2009 00:00,20,10,ENE,Mist,0.0,95,2,1014,64,20,19,20,15,20,1
14/1/2009 01:00,20,12,ENE,Mist,0.0,95,5,1014,66,20,19,20,18,20,1
14/1/2009 02:00,20,13,ENE,Cloudy,0.0,95,7,1014,69,20,19,20,20,20,1
14/1/2009 03:00,20,15,ENE,Cloudy,0.0,94,10,1014,71,20,19,20,23,20,1
14/1/2009 04:00,20,13,ENE,Cloudy,0.0,93,10,1015,70,21,19,20,20,20,1
14/1/2009 05:00,21,12,ENE,Light rain shower,0.1,91,10,1015,68,23,19,21,17,21,1
14/1/2009 06:00,21,11,ENE,Light rain shower,0.1,90,10,1016,67,24,19,21,14,21,1
14/1/2009 07:00,22,12,ENE,Light rain shower,0.0,85,10,1016,57,25,20,22,15,25,1
14/1/2009 08:00,24,13,ENE,Partly cloudy,0.0,79,10,1016,48,26,20,24,15,26,1
14/1/2009 09:00,25,14,ENE,Partly cloudy,0.0,74,10,1016,39,27,20,25,16,27,1
14/1/2009 10:00,25,14,ENE,Partly cloudy,0.0,74,10,1015,32,27,20,25,16,27,1
14/1/2009 11:00,25,14,ENE,Patchy rain possible,0.1,73,9,1014,26,27,20,25,17,27,1
14/1/2009 12:00,25,14,NE,Patchy rain possible,0.1,73,9,1013,20,26,19,25,17,26,1
14/1/2009 13:00,24,12,ENE,Patchy rain possible,0.0,75,9,1013,19,26,20,24,15,26,1
14/1/2009 14:00,24,11,ENE,Sunny,0.0,78,10,1013,19,26,20,24,14,26,1
14/1/2009 15:00,23,9,E,Sunny,0.0,80,10,1013,18,25,20,23,12,25,1
14/1/2009 16:00,22,9,ENE,Sunny,0.0,85,7,1013,22,24,20,22,13,22,1
14/1/2009 17:00,21,9,ENE,Mist,0.0,90,5,1014,26,22,20,21,14,21,1
14/1/2009 18:00,20,9,ENE,Mist,0.0,95,2,1015,29,20,19,20,15,20,1
14/1/2009 19:00,20,9,ENE,Mist,0.0,96,1,1015,53,20,19,20,15,20,1
14/1/2009 20:00,19,8,ENE,Fog,0.0,97,1,1015,76,19,19,19,15,19,1
14/1/2009 21:00,19,8,ENE,Fog,0.0,97,0,1015,100,19,18,19,15,19,1
14/1/2009 22:00,19,8,ENE,Fog,0.0,98,0,1015,100,19,18,19,14,19,1
14/1/2009 23:00,18,8,ENE,Fog,0.0,98,0,1015,100,19,18,19,14,19,1
15/1/2009 00:00,18,7,ENE,Fog,0.0,98,0,1014,100,19,18,19,13,19,1
15/1/2009 01:00,18,8,ENE,Fog,0.0,98,0,1014,100,19,18,19,15,19,1
15/1/2009 02:00,18,10,ENE,Fog,0.0,98,0,1014,100,19,18,19,17,19,1
15/1/2009 03:00,19,11,NE,Fog,0.0,98,0,1014,100,19,18,19,19,19,1
15/1/2009 04:00,20,11,ENE,Fog,0.0,92,3,1015,68,21,19,20,17,20,1
15/1/2009 05:00,21,11,ENE,Clear,0.0,86,7,1015,36,23,19,21,14,21,1
15/1/2009 06:00,22,11,ENE,Clear,0.0,80,10,1016,4,25,19,23,12,25,1
15/1/2009 07:00,24,11,ENE,Sunny,0.0,71,10,1015,3,26,19,24,13,26,1
15/1/2009 08:00,26,12,ENE,Sunny,0.0,63,10,1015,3,28,18,26,14,28,1
15/1/2009 09:00,27,12,NE,Sunny,0.0,55,10,1015,2,29,18,28,14,29,1
15/1/2009 10:00,28,12,NE,Sunny,0.0,54,10,1014,5,29,18,28,14,29,1
15/1/2009 11:00,28,12,NE,Sunny,0.0,52,10,1013,8,30,18,28,14,30,1
15/1/2009 12:00,29,12,NE,Sunny,0.0,51,10,1013,11,30,18,29,13,30,1
15/1/2009 13:00,27,11,NE,Sunny,0.0,59,10,1013,13,28,18,27,15,28,1
15/1/2009 14:00,25,11,ENE,Sunny,0.0,67,10,1013,16,27,19,26,16,27,1
15/1/2009 15:00,24,11,ENE,Sunny,0.0,75,10,1013,18,26,19,24,18,26,1
15/1/2009 16:00,23,10,ENE,Sunny,0.0,80,10,1013,14,24,19,23,17,24,1
15/1/2009 17:00,22,10,ENE,Sunny,0.0,85,10,1014,10,23,19,22,16,22,1
15/1/2009 18:00,21,9,ENE,Sunny,0.0,90,10,1015,6,21,19,21,15,21,1
15/1/2009 19:00,20,9,ENE,Clear,0.0,91,10,1015,8,20,19,20,16,20,1
15/1/2009 20:00,19,9,ENE,Clear,0.0,92,10,1015,9,20,19,20,17,20,1
15/1/2009 21:00,19,9,ENE,Clear,0.0,94,10,1015,10,19,18,19,17,19,1
15/1/2009 22:00,19,9,ENE,Clear,0.0,95,7,1015,17,19,18,19,17,19,1
15/1/2009 23:00,18,9,ENE,Mist,0.0,95,5,1014,24,19,18,19,16,19,1
16/1/2009 00:00,18,9,ENE,Mist,0.0,96,2,1014,31,19,18,19,16,19,1
16/1/2009 01:00,18,8,ENE,Mist,0.0,97,1,1014,54,19,18,19,15,19,1
16/1/2009 02:00,18,8,ENE,Fog,0.0,97,1,1014,77,19,18,19,14,19,1
16/1/2009 03:00,18,8,ENE,Fog,0.0,98,0,1014,100,19,18,19,13,19,1
16/1/2009 04:00,19,8,ENE,Fog,0.0,94,3,1015,75,20,18,19,13,19,1
16/1/2009 05:00,20,9,ENE,Clear,0.0,90,7,1015,49,22,19,20,12,20,1
16/1/2009 06:00,21,10,ENE,Clear,0.0,86,10,1016,24,24,19,21,12,21,1
16/1/2009 07:00,23,11,NE,Sunny,0.0,76,10,1015,17,26,18,23,14,26,1
16/1/2009 08:00,25,13,NE,Sunny,0.0,65,10,1015,11,27,18,25,15,27,1
16/1/2009 09:00,27,15,NE,Sunny,0.0,55,10,1015,4,28,17,27,17,28,1
16/1/2009 10:00,27,16,NE,Sunny,0.0,54,10,1014,9,28,17,27,18,28,1
16/1/2009 11:00,28,16,NE,Sunny,0.0,53,10,1013,14,29,17,28,19,29,1
16/1/2009 12:00,28,17,NE,Sunny,0.0,52,10,1013,20,29,17,28,20,29,1
16/1/2009 13:00,26,14,NE,Sunny,0.0,58,10,1012,14,28,18,27,16,28,1
16/1/2009 14:00,25,10,ENE,Sunny,0.0,63,10,1012,8,27,18,26,12,27,1
16/1/2009 15:00,24,6,ENE,Sunny,0.0,69,10,1012,3,26,19,25,8,26,1
16/1/2009 16:00,22,8,ENE,Sunny,0.0,75,10,1013,3,24,19,23,11,24,1
16/1/2009 17:00,21,9,ENE,Sunny,0.0,82,10,1014,2,22,18,22,13,22,1
16/1/2009 18:00,20,10,ENE,Sunny,0.0,88,10,1014,2,20,18,20,16,20,1
16/1/2009 19:00,19,10,ENE,Clear,0.0,90,7,1014,8,20,18,20,17,20,1
16/1/2009 20:00,19,10,E,Mist,0.0,92,5,1015,14,19,18,19,18,19,1
16/1/2009 21:00,18,10,E,Mist,0.0,94,2,1015,20,19,18,19,19,19,1
16/1/2009 22:00,18,10,E,Mist,0.0,95,1,1015,47,18,18,18,18,18,1
16/1/2009 23:00,18,9,E,Fog,0.0,96,1,1014,73,18,18,18,17,18,1
17/1/2009 00:00,18,9,ENE,Fog,0.0,97,0,1014,100,18,18,18,16,18,1
17/1/2009 01:00,18,10,ENE,Fog,0.0,97,3,1014,82,18,18,18,18,18,1
17/1/2009 02:00,18,11,ENE,Partly cloudy,0.0,97,7,1013,63,18,18,18,20,18,1
17/1/2009 03:00,18,13,ENE,Partly cloudy,0.0,97,10,1013,45,18,18,18,21,18,1
17/1/2009 04:00,19,12,ENE,Partly cloudy,0.0,91,10,1014,33,20,18,19,19,19,1
17/1/2009 05:00,20,12,ENE,Clear,0.0,86,10,1014,22,22,18,21,16,21,1
17/1/2009 06:00,21,12,ENE,Clear,0.0,80,10,1015,10,24,18,22,13,22,1
17/1/2009 07:00,23,12,ENE,Sunny,0.0,72,10,1015,16,26,18,23,13,26,1
17/1/2009 08:00,25,12,ENE,Partly cloudy,0.0,64,10,1015,21,27,18,25,14,27,1
17/1/2009 09:00,27,12,ENE,Partly cloudy,0.0,56,10,1014,27,28,18,27,14,28,1
17/1/2009 10:00,27,13,NE,Partly cloudy,0.0,57,10,1014,35,28,18,27,15,28,1
17/1/2009 11:00,27,14,NE,Partly cloudy,0.0,58,10,1013,43,28,18,27,16,28,1
17/1/2009 12:00,27,15,NE,Partly cloudy,0.0,59,10,1012,51,28,18,27,17,28,1
17/1/2009 13:00,26,14,NE,Partly cloudy,0.0,65,10,1012,46,27,18,26,17,27,1
17/1/2009 14:00,24,12,NE,Partly cloudy,0.0,71,10,1012,41,26,19,24,16,26,1
17/1/2009 15:00,23,11,NE,Partly cloudy,0.0,77,10,1012,36,25,19,23,16,25,1
17/1/2009 16:00,22,10,ENE,Partly cloudy,0.0,82,10,1012,33,23,19,22,15,22,1
17/1/2009 17:00,21,9,ENE,Partly cloudy,0.0,86,10,1013,30,22,19,21,15,21,1
17/1/2009 18:00,20,9,ENE,Partly cloudy,0.0,91,10,1014,28,20,19,20,14,20,1
17/1/2009 19:00,20,8,ENE,Partly cloudy,0.0,92,7,1014,31,20,19,20,14,20,1
17/1/2009 20:00,19,8,ENE,Mist,0.0,94,5,1014,34,20,18,20,13,20,1
17/1/2009 21:00,19,8,ENE,Mist,0.0,95,2,1014,37,19,18,19,13,19,1
17/1/2009 22:00,19,8,ENE,Mist,0.0,96,2,1013,40,19,18,19,13,19,1
17/1/2009 23:00,18,8,ENE,Mist,0.0,96,2,1013,43,19,18,19,13,19,1
18/1/2009 00:00,18,8,E,Mist,0.0,97,2,1012,46,19,18,19,12,19,1
18/1/2009 01:00,18,7,ENE,Mist,0.0,97,2,1012,47,19,18,19,11,19,1
18/1/2009 02:00,18,6,ENE,Mist,0.0,97,2,1012,49,19,18,19,10,19,1
18/1/2009 03:00,18,6,NE,Mist,0.0,97,2,1012,50,19,18,19,9,19,1
18/1/2009 04:00,19,7,ENE,Mist,0.0,91,5,1013,37,21,18,20,10,20,1
18/1/2009 05:00,20,8,ENE,Clear,0.0,85,7,1013,24,23,18,21,10,21,1
18/1/2009 06:00,22,9,ENE,Clear,0.0,80,10,1014,10,25,19,22,10,22,1
18/1/2009 07:00,24,10,ENE,Sunny,0.0,71,10,1014,9,26,18,24,11,26,1
18/1/2009 08:00,26,10,ENE,Sunny,0.0,62,10,1014,8,27,18,26,12,27,1
18/1/2009 09:00,27,11,ENE,Sunny,0.0,53,10,1013,7,29,17,28,12,29,1
18/1/2009 10:00,28,11,NE,Sunny,0.0,51,10,1012,10,29,17,28,13,29,1
18/1/2009 11:00,28,11,NE,Sunny,0.0,49,10,1012,14,29,17,29,13,29,1
18/1/2009 12:00,29,11,NE,Sunny,0.0,47,10,1011,18,30,17,29,13,30,1
18/1/2009 13:00,27,10,NE,Sunny,0.0,54,10,1011,16,28,17,28,13,28,1
18/1/2009 14:00,26,10,NE,Sunny,0.0,61,10,1011,14,27,18,26,13,27,1
18/1/2009 15:00,24,9,NE,Sunny,0.0,68,10,1011,12,26,18,25,14,26,1
18/1/2009 16:00,23,9,NE,Sunny,0.0,74,10,1011,9,26,18,24,14,26,1
18/1/2009 17:00,22,9,ENE,Sunny,0.0,80,10,1012,7,25,19,22,15,22,1
18/1/2009 18:00,21,9,ENE,Sunny,0.0,86,10,1012,5,24,19,21,15,21,1
18/1/2009 19:00,20,9,ENE,Clear,0.0,89,7,1013,15,22,19,20,15,20,1
18/1/2009 20:00,19,9,ENE,Mist,0.0,93,5,1013,26,21,18,20,15,20,1
18/1/2009 21:00,19,9,ENE,Mist,0.0,96,2,1013,36,19,18,19,15,19,1
18/1/2009 22:00,18,8,ENE,Mist,0.0,96,1,1013,58,19,18,19,14,19,1
18/1/2009 23:00,18,7,ENE,Fog,0.0,97,1,1012,79,18,18,18,12,18,1
19/1/2009 00:00,18,6,ENE,Fog,0.0,98,0,1012,100,18,18,18,10,18,1
19/1/2009 01:00,18,7,ENE,Fog,0.0,98,0,1012,100,18,18,18,12,18,1
19/1/2009 02:00,18,8,ENE,Fog,0.0,97,0,1012,100,18,18,18,13,18,1
19/1/2009 03:00,18,8,ENE,Fog,0.0,97,0,1012,100,18,18,18,14,18,1
19/1/2009 04:00,19,9,ENE,Fog,0.0,92,3,1012,72,20,18,20,13,20,1
19/1/2009 05:00,20,9,ENE,Clear,0.0,86,7,1013,44,22,18,21,12,21,1
19/1/2009 06:00,22,9,NE,Clear,0.0,81,10,1013,17,25,19,22,11,22,1
19/1/2009 07:00,23,12,NE,Sunny,0.0,72,10,1013,19,26,18,24,14,26,1
19/1/2009 08:00,25,14,NE,Sunny,0.0,63,10,1013,21,27,18,25,17,27,1
19/1/2009 09:00,27,17,NE,Sunny,0.0,54,10,1012,23,28,17,27,19,28,1
19/1/2009 10:00,27,16,NE,Sunny,0.0,56,10,1012,33,28,17,27,18,28,1
19/1/2009 11:00,27,15,NE,Partly cloudy,0.0,57,10,1011,42,28,17,27,18,28,1
19/1/2009 12:00,26,14,NE,Partly cloudy,0.0,59,10,1010,52,27,18,26,17,27,1
19/1/2009 13:00,25,11,ENE,Partly cloudy,0.0,63,10,1010,40,27,18,26,13,27,1
19/1/2009 14:00,24,8,ENE,Sunny,0.0,67,10,1010,28,26,18,25,10,26,1
19/1/2009 15:00,24,5,ENE,Sunny,0.0,71,10,1010,15,26,19,24,7,26,1
19/1/2009 16:00,22,6,ENE,Sunny,0.0,75,10,1010,14,24,18,23,10,24,1
19/1/2009 17:00,21,7,ENE,Sunny,0.0,80,10,1011,13,22,18,22,12,22,1
19/1/2009 18:00,20,8,ENE,Sunny,0.0,84,10,1012,12,21,18,21,15,21,1
19/1/2009 19:00,20,9,ENE,Clear,0.0,88,7,1012,20,20,18,20,16,20,1
19/1/2009 20:00,19,9,ENE,Mist,0.0,91,5,1012,28,19,18,19,17,19,1
19/1/2009 21:00,19,9,ENE,Mist,0.0,94,2,1013,35,19,18,19,18,19,1
19/1/2009 22:00,18,8,ENE,Mist,0.0,95,2,1012,41,19,18,19,16,19,1
19/1/2009 23:00,18,7,ENE,Mist,0.0,96,2,1012,46,19,18,19,13,19,1
20/1/2009 00:00,18,6,ENE,Mist,0.0,97,2,1011,51,18,18,18,11,18,1
20/1/2009 01:00,18,8,ENE,Mist,0.0,97,1,1011,67,18,18,18,14,18,1
20/1/2009 02:00,18,10,NE,Fog,0.0,97,1,1012,84,19,18,19,17,19,1
20/1/2009 03:00,19,12,NE,Fog,0.0,97,0,1012,100,19,18,19,21,19,1
20/1/2009 04:00,19,11,NE,Fog,0.0,93,3,1012,84,21,18,20,18,20,1
20/1/2009 05:00,20,11,NE,Partly cloudy,0.0,90,7,1013,67,22,19,21,15,21,1
20/1/2009 06:00,21,10,NE,Partly cloudy,0.0,86,10,1013,51,24,19,22,13,22,1
20/1/2009 07:00,23,11,NE,Partly cloudy,0.0,78,10,1013,46,26,19,24,13,26,1
20/1/2009 08:00,25,11,NE,Partly cloudy,0.0,69,10,1013,40,28,19,26,13,28,1
20/1/2009 09:00,27,12,NE,Partly cloudy,0.0,61,10,1013,35,29,19,28,13,29,1
20/1/2009 10:00,28,12,NE,Partly cloudy,0.0,59,10,1012,33,29,19,28,13,29,1
20/1/2009 11:00,28,12,NE,Partly cloudy,0.0,58,10,1011,31,30,19,28,14,30,1
20/1/2009 12:00,28,12,NE,Partly cloudy,0.0,57,10,1010,29,30,19,28,14,30,1
20/1/2009 13:00,27,12,NE,Partly cloudy,0.0,60,10,1010,24,29,19,27,15,29,1
20/1/2009 14:00,26,12,ENE,Sunny,0.0,64,10,1010,19,28,19,26,16,28,1
20/1/2009 15:00,25,12,E,Sunny,0.0,68,10,1010,14,27,19,25,17,27,1
20/1/2009 16:00,23,10,ENE,Sunny,0.0,75,10,1011,11,26,19,24,15,26,1
20/1/2009 17:00,22,9,ENE,Sunny,0.0,81,10,1012,8,25,19,23,14,23,1
20/1/2009 18:00,20,8,ENE,Sunny,0.0,88,10,1012,4,24,19,21,13,21,1
20/1/2009 19:00,20,8,ENE,Clear,0.0,90,7,1012,8,22,19,20,14,20,1
20/1/2009 20:00,19,8,ENE,Mist,0.0,93,5,1013,11,20,18,19,15,19,1
20/1/2009 21:00,18,8,ENE,Mist,0.0,95,2,1013,14,19,18,19,16,19,1
20/1/2009 22:00,18,7,ENE,Mist,0.0,96,1,1012,43,18,17,18,14,18,1
20/1/2009 23:00,17,6,ENE,Fog,0.0,96,1,1012,71,18,17,18,12,18,1
21/1/2009 00:00,17,5,ENE,Fog,0.0,97,0,1012,100,17,17,17,11,17,1
21/1/2009 01:00,17,6,ENE,Fog,0.0,97,0,1012,100,18,17,18,11,18,1
21/1/2009 02:00,17,6,NE,Fog,0.0,98,0,1012,100,18,17,18,12,18,1
21/1/2009 03:00,18,7,NE,Fog,0.0,98,0,1012,100,18,17,18,13,18,1
21/1/2009 04:00,18,8,NE,Fog,0.0,95,3,1012,83,19,18,19,13,19,1
21/1/2009 05:00,19,8,ENE,Partly cloudy,0.0,92,7,1013,67,20,18,20,12,20,1
21/1/2009 06:00,20,9,ENE,Partly cloudy,0.0,90,10,1013,50,21,19,21,11,21,1
21/1/2009 07:00,23,8,ENE,Partly cloudy,0.0,78,10,1013,35,24,19,23,10,24,1
21/1/2009 08:00,25,8,ENE,Sunny,0.0,66,10,1013,19,27,19,26,10,27,1
21/1/2009 09:00,28,8,NE,Sunny,0.0,54,10,1013,3,31,19,29,9,31,1
21/1/2009 10:00,28,9,NE,Sunny,0.0,52,10,1012,6,31,18,29,10,31,1
21/1/2009 11:00,29,10,NE,Sunny,0.0,50,10,1011,10,31,18,29,12,31,1
21/1/2009 12:00,29,12,NNE,Sunny,0.0,47,10,1010,14,31,17,30,13,31,1
21/1/2009 13:00,28,11,NE,Sunny,0.0,54,10,1010,14,29,18,28,14,29,1
21/1/2009 14:00,26,11,NE,Sunny,0.0,61,10,1010,14,28,18,26,14,28,1
21/1/2009 15:00,25,10,NE,Sunny,0.0,67,10,1011,14,26,18,25,15,26,1
21/1/2009 16:00,23,10,NE,Sunny,0.0,74,10,1011,16,24,18,23,15,24,1
21/1/2009 17:00,22,10,NE,Sunny,0.0,81,10,1012,17,23,19,22,15,22,1
21/1/2009 18:00,20,10,NE,Sunny,0.0,88,10,1012,18,21,19,21,15,21,1
21/1/2009 19:00,20,9,ENE,Clear,0.0,90,7,1012,25,20,18,20,14,20,1
21/1/2009 20:00,19,7,ENE,Mist,0.0,92,5,1013,31,20,18,20,12,20,1
21/1/2009 21:00,19,6,E,Mist,0.0,94,2,1013,38,19,18,19,10,19,1
21/1/2009 22:00,19,6,E,Mist,0.0,95,2,1012,35,19,18,19,10,19,1
21/1/2009 23:00,18,6,E,Mist,0.0,95,2,1012,32,19,18,19,10,19,1
22/1/2009 00:00,18,6,ENE,Mist,0.0,95,2,1012,29,19,18,19,10,19,1
22/1/2009 01:00,18,6,ENE,Mist,0.0,96,2,1012,30,19,18,19,10,19,1
22/1/2009 02:00,18,6,ENE,Mist,0.0,96,2,1011,32,18,18,18,11,18,1
22/1/2009 03:00,18,6,NE,Mist,0.0,97,2,1011,33,18,18,18,11,18,1
22/1/2009 04:00,19,7,NE,Mist,0.0,92,5,1012,27,20,18,19,11,19,1
22/1/2009 05:00,20,7,NE,Clear,0.0,87,7,1012,20,22,18,21,10,21,1
22/1/2009 06:00,21,8,NE,Clear,0.0,82,10,1012,14,24,19,22,9,22,1
22/1/2009 07:00,23,10,NE,Sunny,0.0,73,10,1012,24,25,18,23,11,25,1
22/1/2009 08:00,25,12,NE,Partly cloudy,0.0,64,10,1012,34,26,17,25,13,26,1
22/1/2009 09:00,26,14,NE,Partly cloudy,0.0,54,10,1012,44,27,16,26,16,27,1
22/1/2009 10:00,27,13,NE,Partly cloudy,0.0,52,10,1011,31,28,16,27,15,28,1
22/1/2009 11:00,27,13,NE,Sunny,0.0,51,10,1010,17,28,16,27,15,28,1
22/1/2009 12:00,28,12,NE,Sunny,0.0,49,10,1009,4,28,16,28,14,28,1
22/1/2009 13:00,27,12,NE,Sunny,0.0,54,10,1009,4,28,17,27,15,28,1
22/1/2009 14:00,26,12,NE,Sunny,0.0,59,10,1009,4,27,17,26,15,27,1
22/1/2009 15:00,25,12,ENE,Sunny,0.0,64,10,1009,4,26,18,25,16,26,1
22/1/2009 16:00,23,10,ENE,Sunny,0.0,72,10,1009,6,24,18,23,15,24,1
22/1/2009 17:00,21,9,ENE,Sunny,0.0,80,10,1010,8,22,18,22,15,22,1
22/1/2009 18:00,20,8,ENE,Sunny,0.0,88,10,1010,9,20,18,20,14,20,1
22/1/2009 19:00,19,7,ENE,Clear,0.0,90,7,1011,15,20,18,20,13,20,1
22/1/2009 20:00,19,6,ENE,Mist,0.0,92,5,1011,20,19,18,19,11,19,1
22/1/2009 21:00,19,5,ENE,Mist,0.0,94,2,1011,25,19,18,19,10,19,1
22/1/2009 22:00,18,5,ENE,Mist,0.0,95,2,1011,24,19,18,19,9,19,1
22/1/2009 23:00,18,5,ENE,Mist,0.0,95,2,1011,24,19,18,19,9,19,1
23/1/2009 00:00,18,4,ENE,Mist,0.0,96,2,1010,24,19,18,19,8,19,1
23/1/2009 01:00,18,5,ENE,Mist,0.0,96,1,1010,49,18,18,18,9,18,1
23/1/2009 02:00,18,5,ENE,Fog,0.0,97,1,1010,75,18,18,18,10,18,1
23/1/2009 03:00,17,5,ENE,Fog,0.0,97,0,1010,100,18,17,18,11,18,1
23/1/2009 04:00,19,6,ENE,Fog,0.0,92,3,1010,71,20,18,19,10,19,1
23/1/2009 05:00,20,7,ENE,Clear,0.0,87,7,1011,43,22,18,20,9,20,1
23/1/2009 06:00,21,7,NE,Clear,0.0,82,10,1011,14,24,18,22,8,22,1
23/1/2009 07:00,23,7,NE,Sunny,0.0,71,10,1011,10,26,18,24,8,26,1
23/1/2009 08:00,26,7,NE,Sunny,0.0,59,10,1011,6,28,18,27,9,28,1
23/1/2009 09:00,28,8,NNE,Sunny,0.0,48,10,1011,2,30,17,29,9,30,1
23/1/2009 10:00,28,9,NNE,Sunny,0.0,46,10,1010,7,30,17,29,10,30,1
23/1/2009 11:00,29,10,NNE,Sunny,0.0,45,10,1010,12,30,16,29,12,30,1
23/1/2009 12:00,29,12,NNE,Sunny,0.0,44,10,1009,17,30,16,29,13,30,1
23/1/2009 13:00,28,10,NNE,Sunny,0.0,52,10,1009,16,29,17,28,12,29,1
23/1/2009 14:00,26,8,NNE,Sunny,0.0,61,10,1009,15,27,18,26,11,27,1
23/1/2009 15:00,24,7,NNE,Sunny,0.0,69,10,1009,14,26,19,25,10,26,1
23/1/2009 16:00,23,7,NE,Sunny,0.0,75,10,1009,12,26,19,24,11,26,1
23/1/2009 17:00,22,8,NE,Sunny,0.0,81,10,1010,10,25,19,22,12,22,1
23/1/2009 18:00,21,9,ENE,Sunny,0.0,87,10,1010,8,24,19,21,13,21,1
23/1/2009 19:00,20,9,ENE,Clear,0.0,90,7,1011,20,22,19,21,14,21,1
23/1/2009 20:00,19,8,ENE,Mist,0.0,93,5,1011,32,21,19,20,14,20,1
23/1/2009 21:00,19,8,ENE,Mist,0.0,96,2,1011,44,19,18,19,15,19,1
23/1/2009 22:00,18,8,ENE,Mist,0.0,97,1,1011,63,19,18,19,13,19,1
23/1/2009 23:00,18,7,E,Fog,0.0,97,1,1011,81,19,18,19,12,19,1
24/1/2009 00:00,18,6,E,Fog,0.0,98,0,1010,100,18,18,18,11,18,1
24/1/2009 01:00,18,6,E,Fog,0.0,97,1,1010,77,18,18,18,10,18,1
24/1/2009 02:00,18,6,ESE,Mist,0.0,97,1,1010,55,18,18,18,10,18,1
24/1/2009 03:00,17,5,ESE,Mist,0.0,97,2,1010,32,18,18,18,9,18,1
24/1/2009 04:00,19,6,ESE,Mist,0.0,89,5,1011,22,21,18,20,8,20,1
24/1/2009 05:00,21,6,E,Clear,0.0,81,7,1011,13,23,18,22,8,22,1
24/1/2009 06:00,22,6,E,Clear,0.0,73,10,1011,3,26,19,24,7,26,1
24/1/2009 07:00,24,7,E,Sunny,0.0,64,10,1011,7,27,18,26,8,27,1
24/1/2009 08:00,27,8,ENE,Sunny,0.0,54,10,1011,12,28,17,27,10,28,1
24/1/2009 09:00,29,9,ENE,Sunny,0.0,44,10,1011,16,30,16,29,11,30,1
24/1/2009 10:00,29,9,ENE,Sunny,0.0,46,10,1010,19,30,16,29,11,30,1
24/1/2009 11:00,29,9,ENE,Sunny,0.0,47,10,1010,22,30,17,29,11,30,1
24/1/2009 12:00,28,9,NE,Sunny,0.0,49,10,1009,25,30,17,29,11,30,1
24/1/2009 13:00,27,9,ENE,Sunny,0.0,55,10,1009,31,29,18,27,11,29,1
24/1/2009 14:00,26,8,ENE,Partly cloudy,0.0,62,10,1009,37,27,18,26,11,27,1
24/1/2009 15:00,24,8,E,Partly cloudy,0.0,68,10,1009,43,26,19,25,12,26,1
24/1/2009 16:00,23,7,E,Partly cloudy,0.0,75,10,1009,33,26,19,24,10,26,1
24/1/2009 17:00,22,6,E,Sunny,0.0,81,10,1010,23,25,19,23,9,25,1
24/1/2009 18:00,21,5,E,Sunny,0.0,87,10,1010,14,24,19,22,7,22,1
24/1/2009 19:00,20,4,E,Clear,0.0,90,7,1011,21,23,19,21,7,21,1
24/1/2009 20:00,19,4,E,Mist,0.0,94,5,1011,28,21,19,20,8,20,1
24/1/2009 21:00,19,4,ENE,Mist,0.0,97,2,1011,35,19,18,19,8,19,1
24/1/2009 22:00,18,4,ENE,Mist,0.0,97,1,1011,57,19,18,19,8,19,1
24/1/2009 23:00,18,4,ENE,Fog,0.0,98,1,1011,78,19,18,19,8,19,1
25/1/2009 00:00,18,4,ENE,Fog,0.0,98,0,1011,100,18,18,18,8,18,1
25/1/2009 01:00,18,4,NE,Fog,0.0,98,1,1011,89,19,18,19,7,19,1
25/1/2009 02:00,19,3,NE,Mist,0.0,97,1,1011,78,19,19,19,5,19,1
25/1/2009 03:00,19,2,NE,Mist,0.0,97,2,1011,67,19,19,19,3,19,1
25/1/2009 04:00,19,3,NE,Mist,0.0,96,5,1011,66,20,19,20,4,20,1
25/1/2009 05:00,20,3,NE,Cloudy,0.0,95,7,1012,66,20,19,20,5,20,1
25/1/2009 06:00,20,4,NE,Cloudy,0.0,94,10,1013,65,20,19,20,6,20,1
25/1/2009 07:00,21,5,NE,Cloudy,0.0,90,10,1012,70,22,20,21,7,21,1
25/1/2009 08:00,22,6,NNE,Cloudy,0.0,87,10,1012,76,24,20,22,8,24,1
25/1/2009 09:00,23,8,NNE,Cloudy,0.0,83,10,1012,82,25,20,23,9,25,1
25/1/2009 10:00,24,9,NNE,Cloudy,0.0,82,10,1011,84,26,20,24,10,26,1
25/1/2009 11:00,24,10,NE,Overcast,0.0,81,10,1010,86,26,21,24,12,26,1
25/1/2009 12:00,24,11,NE,Overcast,0.1,80,10,1009,89,26,21,25,13,26,1
25/1/2009 13:00,24,11,NE,Overcast,0.0,83,10,1010,88,26,21,24,14,26,1
25/1/2009 14:00,23,11,NE,Cloudy,0.0,86,10,1010,87,26,21,23,15,26,1
25/1/2009 15:00,23,10,NE,Cloudy,0.0,90,10,1010,86,25,21,23,15,25,1
25/1/2009 16:00,22,10,ENE,Cloudy,0.0,92,7,1010,84,25,21,22,15,25,1
25/1/2009 17:00,22,9,ENE,Mist,0.0,94,5,1011,82,24,21,22,14,22,1
25/1/2009 18:00,21,8,ENE,Mist,0.0,95,2,1011,80,24,21,21,13,21,1
25/1/2009 19:00,21,8,ENE,Mist,0.0,96,1,1011,86,23,20,21,12,21,1
25/1/2009 20:00,21,7,ENE,Fog,0.0,97,1,1011,93,22,20,21,11,21,1
25/1/2009 21:00,21,6,ENE,Fog,0.0,97,0,1011,100,21,20,21,11,21,1
25/1/2009 22:00,21,6,ENE,Fog,0.0,97,0,1011,100,21,20,21,10,21,1
25/1/2009 23:00,20,6,ENE,Fog,0.0,98,0,1010,100,21,20,21,10,21,1
26/1/2009 00:00,20,6,ENE,Fog,0.0,98,0,1010,100,21,20,21,9,21,1
26/1/2009 01:00,20,6,ENE,Fog,0.0,98,0,1010,100,21,20,21,10,21,1
26/1/2009 02:00,20,7,NE,Fog,0.0,98,0,1010,100,21,20,21,12,21,1
26/1/2009 03:00,20,7,NNE,Fog,0.0,98,0,1011,100,21,20,21,13,21,1
26/1/2009 04:00,21,7,NE,Fog,0.0,95,3,1011,81,22,21,21,11,21,1
26/1/2009 05:00,22,7,ENE,Partly cloudy,0.0,92,7,1012,62,24,21,22,10,22,1
26/1/2009 06:00,23,7,E,Partly cloudy,0.0,89,10,1012,43,25,21,23,8,25,1
26/1/2009 07:00,25,6,E,Partly cloudy,0.0,82,10,1012,49,28,22,25,7,28,1
26/1/2009 08:00,27,5,ENE,Partly cloudy,0.0,75,10,1012,54,30,22,27,6,30,1
26/1/2009 09:00,29,4,ENE,Partly cloudy,0.0,68,10,1011,59,33,23,29,5,33,1
26/1/2009 10:00,28,5,E,Partly cloudy,0.0,71,9,1011,59,32,23,29,6,32,1
26/1/2009 11:00,28,5,E,Moderate or heavy rain shower,1.1,73,8,1010,59,32,23,28,8,32,1
26/1/2009 12:00,28,6,ESE,Moderate or heavy rain shower,1.5,76,7,1009,59,31,23,28,10,31,1
26/1/2009 13:00,26,5,ENE,Moderate or heavy rain shower,0.7,81,8,1009,53,30,23,27,8,30,1
26/1/2009 14:00,25,4,NE,Partly cloudy,0.0,86,9,1010,47,29,23,26,6,29,1
26/1/2009 15:00,24,3,NNE,Partly cloudy,0.0,91,10,1010,40,28,23,25,3,28,1
26/1/2009 16:00,23,3,NE,Partly cloudy,0.0,93,7,1011,60,26,23,24,5,26,1
26/1/2009 17:00,22,4,ENE,Fog,0.0,95,3,1011,80,25,22,23,7,25,1
26/1/2009 18:00,21,5,E,Fog,0.0,97,0,1012,100,24,21,22,9,22,1
26/1/2009 19:00,21,5,E,Fog,0.0,98,0,1012,100,23,21,21,10,21,1
26/1/2009 20:00,20,6,E,Fog,0.0,98,0,1012,100,22,20,21,11,21,1
26/1/2009 21:00,20,6,E,Fog,0.0,98,0,1012,100,20,20,20,12,20,1
26/1/2009 22:00,20,6,E,Fog,0.0,98,0,1012,100,20,20,20,11,20,1
26/1/2009 23:00,19,5,E,Fog,0.0,98,0,1012,100,20,19,20,11,20,1
27/1/2009 00:00,19,5,ESE,Fog,0.0,98,0,1011,100,19,19,19,11,19,1
27/1/2009 01:00,19,5,ESE,Fog,0.0,98,0,1011,100,19,19,19,10,19,1
27/1/2009 02:00,19,5,ESE,Fog,0.0,98,0,1011,100,19,19,19,10,19,1
27/1/2009 03:00,19,5,SE,Fog,0.0,98,0,1012,100,19,19,19,10,19,1
27/1/2009 04:00,20,4,ESE,Fog,0.0,94,3,1012,80,21,20,21,8,21,1
27/1/2009 05:00,22,4,ESE,Partly cloudy,0.0,90,7,1012,60,24,20,22,6,22,1
27/1/2009 06:00,23,4,ESE,Partly cloudy,0.0,86,10,1013,40,26,21,24,5,26,1
27/1/2009 07:00,25,5,ENE,Partly cloudy,0.0,80,10,1013,41,27,21,25,6,27,1
27/1/2009 08:00,26,6,NE,Partly cloudy,0.0,74,10,1013,42,29,21,26,7,29,1
27/1/2009 09:00,27,7,NNE,Partly cloudy,0.0,69,10,1012,43,30,21,28,8,30,1
27/1/2009 10:00,26,7,NNE,Partly cloudy,0.0,75,9,1012,50,29,22,27,10,29,1
27/1/2009 11:00,26,7,NE,Moderate or heavy rain shower,1.8,81,8,1011,57,29,22,26,11,29,1
27/1/2009 12:00,25,7,NE,Moderate or heavy rain shower,2.4,87,7,1010,64,28,23,25,13,28,1
27/1/2009 13:00,24,5,ENE,Moderate or heavy rain shower,1.2,89,5,1010,61,27,23,25,10,27,1
27/1/2009 14:00,24,4,ENE,Mist,0.0,92,4,1010,59,26,23,24,6,26,1
27/1/2009 15:00,23,2,E,Mist,0.0,95,2,1011,56,26,22,23,3,26,1
27/1/2009 16:00,22,3,E,Mist,0.0,96,1,1011,71,25,22,23,5,25,1
27/1/2009 17:00,22,4,E,Fog,0.0,97,1,1012,85,25,21,22,7,22,1
27/1/2009 18:00,21,5,E,Fog,0.0,98,0,1012,100,24,21,21,9,21,1
27/1/2009 19:00,21,5,E,Fog,0.0,98,0,1012,100,23,21,21,9,21,1
27/1/2009 20:00,21,5,ESE,Fog,0.0,98,0,1013,100,22,21,21,9,21,1
27/1/2009 21:00,20,5,ESE,Fog,0.0,98,0,1013,100,21,20,21,9,21,1
27/1/2009 22:00,20,4,ESE,Fog,0.0,98,0,1012,100,21,20,21,8,21,1
27/1/2009 23:00,20,4,ESE,Fog,0.0,97,0,1012,100,20,20,20,8,20,1
28/1/2009 00:00,20,4,ESE,Fog,0.0,97,0,1011,100,20,20,20,7,20,1
28/1/2009 01:00,19,4,ESE,Fog,0.0,97,1,1011,74,20,19,20,9,20,1
28/1/2009 02:00,19,5,SE,Mist,0.0,97,1,1011,49,20,19,20,10,20,1
28/1/2009 03:00,19,6,SE,Mist,0.0,96,2,1012,23,20,19,20,12,20,1
28/1/2009 04:00,20,5,ESE,Mist,0.0,92,5,1012,20,22,20,21,9,21,1
28/1/2009 05:00,22,4,E,Clear,0.0,88,7,1012,17,24,21,23,6,23,1
28/1/2009 06:00,23,3,E,Clear,0.0,84,10,1013,15,27,22,24,3,27,1
28/1/2009 07:00,25,4,ENE,Sunny,0.0,74,10,1013,22,28,21,26,4,28,1
28/1/2009 08:00,27,4,ENE,Partly cloudy,0.0,64,10,1012,29,30,20,28,5,30,1
28/1/2009 09:00,29,5,NE,Partly cloudy,0.0,55,10,1012,36,32,20,30,6,32,1
28/1/2009 10:00,28,5,NE,Partly cloudy,0.0,63,10,1011,39,31,21,29,7,31,1
28/1/2009 11:00,27,5,NE,Partly cloudy,0.0,72,10,1011,42,31,22,28,8,31,1
28/1/2009 12:00,26,5,NE,Partly cloudy,0.0,80,10,1010,44,30,23,27,10,30,1
28/1/2009 13:00,25,6,NE,Partly cloudy,0.0,84,10,1010,47,29,23,26,9,29,1
28/1/2009 14:00,24,6,NE,Partly cloudy,0.0,88,10,1010,50,27,23,25,9,27,1
28/1/2009 15:00,23,6,NE,Partly cloudy,0.0,92,10,1010,53,26,22,24,9,26,1
28/1/2009 16:00,23,6,ENE,Partly cloudy,0.0,94,7,1011,69,25,22,23,9,25,1
28/1/2009 17:00,22,5,ENE,Fog,0.0,96,3,1012,84,25,21,22,9,22,1
28/1/2009 18:00,21,5,ENE,Fog,0.0,98,0,1012,100,24,21,21,9,21,1
28/1/2009 19:00,21,6,E,Fog,0.0,98,0,1013,100,23,21,21,11,21,1
28/1/2009 20:00,20,7,E,Fog,0.0,98,0,1013,100,22,20,21,14,21,1
28/1/2009 21:00,20,9,E,Fog,0.0,99,0,1013,100,20,20,20,16,20,1
28/1/2009 22:00,20,8,E,Fog,0.0,99,0,1013,100,20,20,20,14,20,1
28/1/2009 23:00,20,6,E,Fog,0.0,99,0,1012,100,20,20,20,12,20,1
29/1/2009 00:00,19,5,E,Fog,0.0,99,0,1012,100,20,20,20,10,20,1
29/1/2009 01:00,19,6,E,Fog,0.0,98,0,1012,100,20,19,20,11,20,1
29/1/2009 02:00,19,6,E,Fog,0.0,98,0,1012,100,19,19,19,12,19,1
29/1/2009 03:00,19,6,ENE,Fog,0.0,98,0,1012,100,19,19,19,14,19,1
29/1/2009 04:00,20,7,ENE,Fog,0.0,95,3,1012,71,21,19,20,12,20,1
29/1/2009 05:00,21,8,ENE,Clear,0.0,92,7,1013,41,23,20,21,11,21,1
29/1/2009 06:00,22,8,ENE,Clear,0.0,90,10,1013,12,25,21,23,10,25,1
29/1/2009 07:00,24,9,ENE,Sunny,0.0,75,10,1013,10,27,19,25,11,27,1
29/1/2009 08:00,26,10,ENE,Sunny,0.0,61,10,1013,7,28,18,27,12,28,1
29/1/2009 09:00,29,11,NE,Sunny,0.0,47,10,1012,5,30,17,29,13,30,1
29/1/2009 10:00,29,12,NE,Sunny,0.0,45,10,1012,5,30,16,29,13,30,1
29/1/2009 11:00,29,12,NE,Sunny,0.0,42,10,1011,5,30,15,30,14,30,1
29/1/2009 12:00,30,12,NE,Sunny,0.0,40,10,1010,6,30,15,30,14,30,1
29/1/2009 13:00,29,12,NE,Sunny,0.0,45,10,1010,6,29,15,29,15,29,1
29/1/2009 14:00,27,12,ENE,Sunny,0.0,50,10,1010,7,28,16,27,17,28,1
29/1/2009 15:00,26,12,ENE,Sunny,0.0,56,10,1010,7,27,16,26,18,27,1
29/1/2009 16:00,24,10,ENE,Sunny,0.0,64,10,1011,8,25,17,24,18,25,1
29/1/2009 17:00,22,9,ENE,Sunny,0.0,73,10,1011,8,22,17,22,17,22,1
29/1/2009 18:00,20,8,E,Sunny,0.0,82,10,1012,9,20,17,20,16,20,1
29/1/2009 19:00,19,8,E,Clear,0.0,86,10,1012,9,19,17,19,16,19,1
29/1/2009 20:00,18,8,E,Clear,0.0,89,10,1012,9,18,17,18,16,18,1
29/1/2009 21:00,17,8,E,Clear,0.0,92,10,1013,9,18,16,18,16,18,1
29/1/2009 22:00,17,7,E,Clear,0.0,92,10,1012,10,17,16,17,15,17,1
29/1/2009 23:00,16,7,E,Clear,0.0,92,10,1012,11,17,16,17,14,17,1
30/1/2009 00:00,16,6,E,Clear,0.0,91,10,1011,13,17,15,17,14,17,1
30/1/2009 01:00,16,7,E,Clear,0.0,90,10,1011,13,16,15,16,16,16,1
30/1/2009 02:00,16,8,ENE,Clear,0.0,88,10,1012,13,16,14,16,18,16,1
30/1/2009 03:00,15,9,ENE,Clear,0.0,87,10,1012,14,16,14,16,20,16,1
30/1/2009 04:00,17,9,ENE,Clear,0.0,80,10,1012,11,19,15,18,16,18,1
30/1/2009 05:00,20,8,E,Clear,0.0,74,10,1012,9,22,15,20,12,20,1
30/1/2009 06:00,22,7,E,Clear,0.0,67,10,1013,7,25,16,23,9,23,1
30/1/2009 07:00,24,8,E,Sunny,0.0,58,10,1013,5,26,15,25,10,26,1
30/1/2009 08:00,26,10,ENE,Sunny,0.0,48,10,1012,3,28,15,27,11,28,1
30/1/2009 09:00,28,11,ENE,Sunny,0.0,39,10,1012,1,29,14,29,12,29,1
30/1/2009 10:00,29,11,ENE,Sunny,0.0,38,10,1011,2,29,14,30,12,29,1
30/1/2009 11:00,29,11,NE,Sunny,0.0,37,10,1011,3,30,14,30,12,30,1
30/1/2009 12:00,30,10,NE,Sunny,0.0,36,10,1010,5,30,13,30,12,30,1
30/1/2009 13:00,28,10,NE,Sunny,0.0,43,10,1010,5,29,14,29,13,29,1
30/1/2009 14:00,27,9,ENE,Sunny,0.0,50,10,1010,6,28,16,27,13,28,1
30/1/2009 15:00,25,8,ENE,Sunny,0.0,58,10,1010,6,27,17,26,14,27,1
30/1/2009 16:00,23,8,ENE,Sunny,0.0,64,10,1010,13,25,17,24,14,25,1
30/1/2009 17:00,22,8,ENE,Partly cloudy,0.0,70,10,1011,20,23,16,22,15,23,1
30/1/2009 18:00,21,8,E,Partly cloudy,0.0,76,10,1011,27,21,16,21,15,21,1
30/1/2009 19:00,20,8,E,Partly cloudy,0.0,80,10,1012,29,20,16,20,14,20,1
30/1/2009 20:00,19,7,E,Partly cloudy,0.0,84,10,1012,30,19,17,19,13,19,1
30/1/2009 21:00,18,6,E,Partly cloudy,0.0,88,10,1012,32,19,17,19,12,19,1
30/1/2009 22:00,18,6,E,Partly cloudy,0.0,89,10,1012,27,19,17,19,12,19,1
30/1/2009 23:00,18,6,E,Clear,0.0,91,10,1012,21,19,17,19,12,19,1
31/1/2009 00:00,18,6,ENE,Clear,0.0,92,10,1011,16,19,17,19,11,19,1
31/1/2009 01:00,18,6,E,Clear,0.0,93,7,1011,18,18,17,18,11,18,1
31/1/2009 02:00,18,6,E,Mist,0.0,94,5,1011,21,18,17,18,11,18,1
31/1/2009 03:00,18,6,E,Mist,0.0,94,2,1011,23,18,17,18,11,18,1
31/1/2009 04:00,19,6,E,Mist,0.0,88,5,1012,26,20,17,20,10,20,1
31/1/2009 05:00,20,7,ENE,Partly cloudy,0.0,82,7,1012,29,22,18,21,10,21,1
31/1/2009 06:00,22,8,ENE,Partly cloudy,0.0,76,10,1012,32,25,18,22,9,22,1
31/1/2009 07:00,24,9,ENE,Partly cloudy,0.0,66,10,1012,23,26,17,24,10,26,1
31/1/2009 08:00,26,10,ENE,Sunny,0.0,55,10,1012,13,28,16,27,11,28,1
31/1/2009 09:00,28,11,ENE,Sunny,0.0,45,10,1012,4,29,16,29,12,29,1
31/1/2009 10:00,29,11,NE,Sunny,0.0,43,10,1011,5,30,15,29,13,30,1
31/1/2009 11:00,29,11,NE,Sunny,0.0,42,10,1010,7,30,15,30,13,30,1
31/1/2009 12:00,30,12,NE,Sunny,0.0,41,10,1009,9,30,15,30,13,30,1
31/1/2009 13:00,28,10,NE,Sunny,0.0,47,10,1009,9,29,16,29,13,29,1
31/1/2009 14:00,27,9,NE,Sunny,0.0,54,10,1009,9,28,17,27,13,28,1
31/1/2009 15:00,25,8,ENE,Sunny,0.0,61,10,1009,8,27,18,26,14,27,1
31/1/2009 16:00,24,8,ENE,Sunny,0.0,67,10,1010,7,26,18,24,13,26,1
31/1/2009 17:00,22,8,E,Sunny,0.0,73,10,1011,6,25,18,23,13,25,1
31/1/2009 18:00,21,7,E,Sunny,0.0,79,10,1011,6,24,18,21,13,21,1
31/1/2009 19:00,20,7,E,Clear,0.0,83,10,1012,5,22,17,20,13,20,1
31/1/2009 20:00,19,7,E,Clear,0.0,86,10,1012,4,21,17,20,14,20,1
31/1/2009 21:00,18,7,E,Clear,0.0,90,10,1013,4,19,17,19,14,19,1
31/1/2009 22:00,17,6,E,Clear,0.0,92,7,1012,4,19,17,19,13,19,1
31/1/2009 23:00,17,6,E,Mist,0.0,93,5,1012,5,18,17,18,12,18,1
1/2/2009 00:00,16,5,E,Mist,0.0,95,2,1012,5,18,17,18,11,18,1
1/2/2009 01:00,16,5,ESE,Mist,0.0,95,2,1012,5,18,17,18,10,18,1
1/2/2009 02:00,16,5,ESE,Mist,0.0,95,2,1012,5,18,17,18,10,18,1
1/2/2009 03:00,16,5,ESE,Mist,0.0,96,2,1012,5,17,17,17,10,17,1
1/2/2009 04:00,18,5,E,Mist,0.0,88,5,1013,4,20,17,20,9,20,1
1/2/2009 05:00,20,5,E,Clear,0.0,80,7,1013,3,23,18,22,8,22,1
1/2/2009 06:00,22,6,ENE,Clear,0.0,73,10,1013,3,26,19,24,7,26,1
1/2/2009 07:00,25,6,ENE,Sunny,0.0,63,10,1013,5,28,18,26,6,28,1
1/2/2009 08:00,27,6,ENE,Sunny,0.0,53,10,1013,7,30,18,29,6,30,1
1/2/2009 09:00,30,5,ENE,Sunny,0.0,44,10,1013,9,32,17,31,6,32,1
1/2/2009 10:00,30,6,NE,Sunny,0.0,43,10,1012,11,32,17,31,7,32,1
1/2/2009 11:00,30,7,NNE,Sunny,0.0,42,10,1011,12,32,17,31,8,32,1
1/2/2009 12:00,31,8,NNE,Sunny,0.0,41,10,1011,14,32,16,31,9,32,1
1/2/2009 13:00,29,7,NNE,Sunny,0.0,49,10,1011,17,30,17,29,9,30,1
1/2/2009 14:00,27,6,NNE,Sunny,0.0,57,10,1011,21,29,18,28,8,29,1
1/2/2009 15:00,25,5,NE,Sunny,0.0,66,10,1011,24,27,19,26,8,27,1
1/2/2009 16:00,24,4,NE,Sunny,0.0,72,10,1012,20,26,19,24,7,26,1
1/2/2009 17:00,22,4,ENE,Sunny,0.0,79,10,1012,16,25,19,23,7,25,1
1/2/2009 18:00,21,4,ENE,Sunny,0.0,86,10,1013,13,24,19,22,7,22,1
1/2/2009 19:00,20,4,ENE,Clear,0.0,88,10,1013,9,23,19,21,8,21,1
1/2/2009 20:00,19,5,E,Clear,0.0,91,10,1013,6,21,19,21,9,21,1
1/2/2009 21:00,19,5,E,Clear,0.0,94,10,1014,3,20,19,20,10,20,1
1/2/2009 22:00,18,5,E,Clear,0.0,95,7,1013,2,20,19,20,9,20,1
1/2/2009 23:00,18,5,E,Mist,0.0,95,5,1013,2,21,20,21,8,21,1
2/2/2009 00:00,17,5,E,Mist,0.0,96,2,1012,1,21,20,21,7,21,1
2/2/2009 01:00,17,5,E,Mist,0.0,96,2,1013,1,20,19,20,8,20,1
2/2/2009 02:00,16,6,E,Mist,0.0,96,2,1013,0,20,19,20,10,20,1
2/2/2009 03:00,16,6,E,Mist,0.0,96,2,1013,0,19,18,19,11,19,1
2/2/2009 04:00,18,6,E,Mist,0.0,87,5,1013,0,22,19,21,10,21,1
2/2/2009 05:00,20,6,ENE,Clear,0.0,78,7,1014,0,24,19,23,8,23,1
2/2/2009 06:00,22,6,ENE,Clear,0.0,70,10,1014,0,27,19,25,7,27,1
2/2/2009 07:00,25,7,ENE,Sunny,0.0,58,10,1014,0,28,17,27,8,28,1
2/2/2009 08:00,27,8,NE,Sunny,0.0,47,10,1014,0,29,15,29,10,29,1
2/2/2009 09:00,29,10,NE,Sunny,0.0,35,10,1014,0,30,13,31,11,30,1
2/2/2009 10:00,30,11,NE,Sunny,0.0,34,10,1013,1,30,13,31,12,30,1
2/2/2009 11:00,30,11,NE,Sunny,0.0,32,10,1012,2,30,12,31,13,30,1
2/2/2009 12:00,31,12,NE,Sunny,0.0,30,10,1011,2,30,11,31,14,30,1
2/2/2009 13:00,29,11,NE,Sunny,0.0,37,10,1011,2,29,13,30,12,29,1
2/2/2009 14:00,27,9,NE,Sunny,0.0,44,10,1011,2,29,15,29,11,29,1
2/2/2009 15:00,26,7,NE,Sunny,0.0,50,10,1011,2,29,17,28,9,29,1
2/2/2009 16:00,24,7,NE,Sunny,0.0,59,10,1011,1,26,17,25,11,26,1
2/2/2009 17:00,21,7,ENE,Sunny,0.0,68,10,1012,1,23,17,23,13,23,1
2/2/2009 18:00,19,8,ENE,Sunny,0.0,77,10,1013,0,21,17,21,14,21,1
2/2/2009 19:00,18,7,E,Clear,0.0,81,10,1013,0,20,16,20,15,20,1
2/2/2009 20:00,17,7,E,Clear,0.0,85,10,1013,0,19,16,19,15,19,1
2/2/2009 21:00,16,7,E,Clear,0.0,88,10,1014,0,18,16,18,15,18,1
2/2/2009 22:00,16,7,E,Clear,0.0,89,10,1013,0,18,16,18,14,18,1
2/2/2009 23:00,15,6,E,Clear,0.0,90,10,1013,0,18,16,18,12,18,1
3/2/2009 00:00,15,5,E,Clear,0.0,91,10,1012,0,18,17,18,11,18,1
3/2/2009 01:00,15,6,E,Clear,0.0,88,10,1012,0,18,16,18,13,18,1
3/2/2009 02:00,15,7,E,Clear,0.0,86,10,1013,0,17,15,17,15,17,1
3/2/2009 03:00,15,8,ENE,Clear,0.0,83,10,1013,0,17,14,17,17,17,1
3/2/2009 04:00,17,8,ENE,Clear,0.0,75,10,1013,0,20,14,19,14,19,1
3/2/2009 05:00,19,8,ENE,Clear,0.0,66,10,1013,0,23,15,22,11,22,1
3/2/2009 06:00,22,7,ENE,Clear,0.0,58,10,1014,0,25,15,24,8,24,1
3/2/2009 07:00,24,8,ENE,Sunny,0.0,50,10,1014,0,27,15,26,9,27,1
3/2/2009 08:00,27,9,ENE,Sunny,0.0,43,10,1014,0,28,14,28,10,28,1
3/2/2009 09:00,29,10,ENE,Sunny,0.0,35,10,1014,0,30,13,30,12,30,1
3/2/2009 10:00,30,11,ENE,Sunny,0.0,34,10,1013,1,30,13,30,12,30,1
3/2/2009 11:00,30,11,NE,Sunny,0.0,32,10,1012,2,30,12,31,13,30,1
3/2/2009 12:00,31,12,NE,Sunny,0.0,31,10,1011,3,30,12,31,14,30,1
3/2/2009 13:00,29,11,NE,Sunny,0.0,36,10,1011,2,29,13,30,13,29,1
3/2/2009 14:00,28,10,NE,Sunny,0.0,41,10,1011,1,28,14,29,13,28,1
3/2/2009 15:00,26,9,NE,Sunny,0.0,47,10,1011,0,28,15,27,13,28,1
3/2/2009 16:00,24,9,NE,Sunny,0.0,56,10,1011,0,25,15,25,14,25,1
3/2/2009 17:00,21,8,ENE,Sunny,0.0,65,10,1012,0,23,16,23,14,23,1
3/2/2009 18:00,19,7,E,Sunny,0.0,74,10,1012,0,21,16,21,15,21,1
3/2/2009 19:00,18,6,E,Clear,0.0,79,10,1013,0,20,16,20,13,20,1
3/2/2009 20:00,17,5,E,Clear,0.0,83,10,1013,0,19,16,19,11,19,1
3/2/2009 21:00,16,4,E,Clear,0.0,88,10,1014,0,18,16,18,9,18,1
3/2/2009 22:00,15,5,E,Clear,0.0,88,10,1013,0,18,16,18,9,18,1
3/2/2009 23:00,15,5,E,Clear,0.0,89,10,1013,0,18,17,18,10,18,1
4/2/2009 00:00,15,5,E,Clear,0.0,89,10,1012,0,19,17,19,10,19,1
4/2/2009 01:00,15,5,E,Clear,0.0,90,10,1013,0,19,17,19,9,19,1
4/2/2009 02:00,15,5,E,Clear,0.0,91,10,1013,0,19,17,19,9,19,1
4/2/2009 03:00,15,4,ENE,Clear,0.0,91,10,1013,0,19,17,19,8,19,1
4/2/2009 04:00,17,5,ENE,Clear,0.0,84,10,1013,0,21,18,21,8,21,1
4/2/2009 05:00,20,6,ENE,Clear,0.0,77,10,1014,0,24,18,23,9,23,1
4/2/2009 06:00,22,8,ENE,Clear,0.0,70,10,1014,0,26,19,25,9,26,1
4/2/2009 07:00,25,8,ENE,Sunny,0.0,61,10,1014,2,28,18,26,9,28,1
4/2/2009 08:00,27,8,NE,Sunny,0.0,51,10,1014,4,29,17,28,9,29,1
4/2/2009 09:00,29,8,NE,Sunny,0.0,41,10,1014,6,30,15,30,10,30,1
4/2/2009 10:00,29,9,NE,Sunny,0.0,40,10,1013,7,30,15,30,10,30,1
4/2/2009 11:00,30,9,NNE,Sunny,0.0,38,10,1012,8,30,15,30,10,30,1
4/2/2009 12:00,30,9,NNE,Sunny,0.0,37,10,1012,9,30,14,31,11,30,1
4/2/2009 13:00,28,9,NE,Sunny,0.0,44,10,1012,9,29,15,29,12,29,1
4/2/2009 14:00,26,8,NE,Sunny,0.0,52,10,1012,8,28,16,27,12,28,1
4/2/2009 15:00,25,8,NE,Sunny,0.0,60,10,1012,7,26,17,25,13,26,1
4/2/2009 16:00,23,8,ENE,Sunny,0.0,65,10,1012,6,26,17,24,13,26,1
4/2/2009 17:00,22,8,ENE,Sunny,0.0,71,10,1013,5,25,17,23,13,23,1
4/2/2009 18:00,21,8,E,Sunny,0.0,76,10,1013,4,24,17,22,14,22,1
4/2/2009 19:00,20,7,E,Clear,0.0,81,10,1013,3,23,17,21,14,21,1
4/2/2009 20:00,18,7,E,Clear,0.0,86,10,1014,1,21,17,20,14,20,1
4/2/2009 21:00,17,7,E,Clear,0.0,90,10,1014,0,19,17,19,14,19,1
4/2/2009 22:00,17,7,E,Clear,0.0,92,7,1014,0,19,18,19,13,19,1
4/2/2009 23:00,16,6,E,Mist,0.0,93,5,1013,0,19,18,19,12,19,1
5/2/2009 00:00,16,6,E,Mist,0.0,94,2,1013,0,19,18,19,11,19,1
5/2/2009 01:00,15,6,E,Mist,0.0,94,2,1013,0,19,18,19,11,19,1
5/2/2009 02:00,15,6,ESE,Mist,0.0,94,2,1013,0,18,17,18,12,18,1
5/2/2009 03:00,15,6,ESE,Mist,0.0,94,2,1013,0,18,17,18,12,18,1
5/2/2009 04:00,17,6,ESE,Mist,0.0,84,5,1014,0,21,17,20,10,20,1
5/2/2009 05:00,20,6,E,Clear,0.0,75,7,1014,0,24,18,23,8,23,1
5/2/2009 06:00,22,5,ENE,Clear,0.0,65,10,1015,0,27,18,25,6,27,1
5/2/2009 07:00,24,6,ENE,Sunny,0.0,54,10,1014,1,28,16,27,7,28,1
5/2/2009 08:00,27,8,NE,Sunny,0.0,43,10,1014,1,29,14,29,9,29,1
5/2/2009 09:00,29,9,NE,Sunny,0.0,32,10,1014,2,30,13,31,10,30,1
5/2/2009 10:00,30,10,NE,Sunny,0.0,31,10,1013,2,30,12,31,11,30,1
5/2/2009 11:00,30,11,NE,Sunny,0.0,31,10,1012,3,30,12,31,12,30,1
5/2/2009 12:00,30,12,NNE,Sunny,0.0,30,10,1011,4,30,11,31,13,30,1
5/2/2009 13:00,29,11,NE,Sunny,0.0,36,10,1011,4,29,12,29,14,29,1
5/2/2009 14:00,27,11,ENE,Sunny,0.0,42,10,1011,4,28,13,28,16,28,1
5/2/2009 15:00,26,10,E,Sunny,0.0,48,10,1011,3,27,14,26,17,27,1
5/2/2009 16:00,24,9,ENE,Sunny,0.0,57,10,1012,3,26,15,25,16,26,1
5/2/2009 17:00,22,8,ENE,Sunny,0.0,65,10,1012,2,25,16,23,14,23,1
5/2/2009 18:00,20,7,ENE,Sunny,0.0,73,10,1013,2,24,16,21,13,21,1
5/2/2009 19:00,18,7,ENE,Clear,0.0,78,10,1013,1,22,16,20,12,20,1
5/2/2009 20:00,17,6,ENE,Clear,0.0,83,10,1013,1,20,16,19,12,19,1
5/2/2009 21:00,16,5,ENE,Clear,0.0,88,10,1013,0,18,16,18,11,18,1
5/2/2009 22:00,15,5,E,Clear,0.0,89,10,1013,0,18,16,18,10,18,1
5/2/2009 23:00,15,5,E,Clear,0.0,90,10,1012,0,18,16,18,10,18,1
6/2/2009 00:00,14,4,E,Clear,0.0,90,10,1012,0,18,17,18,9,18,1
6/2/2009 01:00,14,5,E,Clear,0.0,91,10,1012,0,18,16,18,10,18,1
6/2/2009 02:00,14,5,E,Clear,0.0,91,10,1012,0,18,16,18,10,18,1
6/2/2009 03:00,14,5,E,Clear,0.0,91,10,1013,0,17,16,17,11,17,1
6/2/2009 04:00,17,6,E,Clear,0.0,85,10,1013,0,20,17,20,11,20,1
6/2/2009 05:00,19,7,ENE,Clear,0.0,78,10,1013,0,23,18,22,10,22,1
6/2/2009 06:00,22,8,ENE,Clear,0.0,72,10,1014,0,25,18,24,10,24,1
6/2/2009 07:00,24,9,NE,Sunny,0.0,62,10,1013,2,27,17,25,11,27,1
6/2/2009 08:00,26,11,NE,Sunny,0.0,53,10,1013,4,28,16,27,12,28,1
6/2/2009 09:00,28,12,NE,Sunny,0.0,43,10,1013,6,29,15,29,14,29,1
6/2/2009 10:00,29,13,NE,Sunny,0.0,41,10,1012,7,29,14,29,15,29,1
6/2/2009 11:00,29,14,NE,Sunny,0.0,39,10,1011,8,29,14,29,16,29,1
6/2/2009 12:00,30,15,NNE,Sunny,0.0,37,10,1010,9,30,14,30,17,30,1
6/2/2009 13:00,28,12,NE,Sunny,0.0,42,10,1010,6,29,15,29,14,29,1
6/2/2009 14:00,27,8,NE,Sunny,0.0,47,10,1010,3,29,16,29,10,29,1
6/2/2009 15:00,25,5,NE,Sunny,0.0,52,10,1010,0,29,17,28,6,29,1
6/2/2009 16:00,23,6,ENE,Sunny,0.0,59,10,1011,0,26,17,25,9,26,1
6/2/2009 17:00,21,8,ENE,Sunny,0.0,66,10,1011,0,23,16,23,13,23,1
6/2/2009 18:00,19,9,ENE,Sunny,0.0,74,10,1012,0,20,16,20,16,20,1
6/2/2009 19:00,18,9,ENE,Clear,0.0,79,10,1012,0,19,16,19,17,19,1
6/2/2009 20:00,17,9,ENE,Clear,0.0,85,10,1012,0,18,16,18,18,18,1
6/2/2009 21:00,16,9,ENE,Clear,0.0,91,10,1013,0,17,16,17,18,17,1
6/2/2009 22:00,15,8,ENE,Clear,0.0,92,7,1013,0,17,16,17,15,17,1
6/2/2009 23:00,15,6,E,Mist,0.0,93,5,1012,0,18,17,18,13,18,1
7/2/2009 00:00,14,5,E,Mist,0.0,94,2,1012,0,18,17,18,10,18,1
7/2/2009 01:00,14,6,E,Mist,0.0,93,5,1012,0,18,17,18,10,18,1
7/2/2009 02:00,14,6,E,Clear,0.0,92,7,1012,0,18,16,18,11,18,1
7/2/2009 03:00,14,6,E,Clear,0.0,91,10,1012,0,17,16,17,12,17,1
7/2/2009 04:00,17,6,E,Clear,0.0,83,10,1013,0,20,16,20,11,20,1
7/2/2009 05:00,19,7,ENE,Clear,0.0,75,10,1013,0,23,17,22,9,22,1
7/2/2009 06:00,22,7,ENE,Clear,0.0,67,10,1013,0,26,18,24,8,24,1
7/2/2009 07:00,24,8,ENE,Sunny,0.0,59,10,1013,3,27,17,26,9,27,1
7/2/2009 08:00,26,8,ENE,Sunny,0.0,50,10,1013,6,28,15,27,10,28,1
7/2/2009 09:00,28,9,NE,Sunny,0.0,42,10,1012,10,29,14,29,10,29,1
7/2/2009 10:00,29,11,NE,Sunny,0.0,39,10,1012,8,29,14,29,13,29,1
7/2/2009 11:00,29,13,NE,Sunny,0.0,37,10,1011,7,29,13,29,15,29,1
7/2/2009 12:00,30,15,NE,Sunny,0.0,34,10,1010,6,29,12,30,17,29,1
7/2/2009 13:00,28,14,NE,Sunny,0.0,38,10,1010,5,28,13,29,17,28,1
7/2/2009 14:00,27,12,NE,Sunny,0.0,42,10,1010,4,27,13,27,16,27,1
7/2/2009 15:00,26,11,NE,Sunny,0.0,46,10,1010,3,27,14,26,16,27,1
7/2/2009 16:00,23,10,NE,Sunny,0.0,57,10,1011,3,24,15,24,15,24,1
7/2/2009 17:00,21,9,ENE,Sunny,0.0,68,10,1011,2,22,15,22,15,22,1
7/2/2009 18:00,18,7,ENE,Sunny,0.0,79,10,1012,2,20,16,20,15,20,1
7/2/2009 19:00,18,7,E,Clear,0.0,83,10,1012,3,19,16,19,14,19,1
7/2/2009 20:00,17,7,E,Clear,0.0,87,10,1013,4,18,16,18,14,18,1
7/2/2009 21:00,16,6,ESE,Clear,0.0,92,10,1013,4,17,15,17,14,17,1
7/2/2009 22:00,16,5,ESE,Clear,0.0,93,7,1013,6,17,16,17,11,17,1
7/2/2009 23:00,16,4,ESE,Mist,0.0,94,5,1012,8,17,16,17,9,17,1
8/2/2009 00:00,15,3,SE,Mist,0.0,95,2,1012,10,17,16,17,7,17,1
8/2/2009 01:00,15,4,ESE,Mist,0.0,95,5,1012,10,17,16,17,8,17,1
8/2/2009 02:00,16,4,E,Clear,0.0,94,7,1012,10,17,16,17,9,17,1
8/2/2009 03:00,16,5,ENE,Clear,0.0,93,10,1012,10,17,16,17,10,17,1
8/2/2009 04:00,18,5,ENE,Clear,0.0,86,10,1013,10,19,16,19,9,19,1
8/2/2009 05:00,20,6,NE,Clear,0.0,78,10,1013,10,22,17,21,8,21,1
8/2/2009 06:00,22,6,NE,Clear,0.0,71,10,1014,11,25,17,23,7,23,1
8/2/2009 07:00,24,8,NE,Sunny,0.0,62,10,1014,14,26,16,25,9,26,1
8/2/2009 08:00,26,10,NE,Sunny,0.0,53,10,1014,18,27,16,26,12,27,1
8/2/2009 09:00,28,12,NNE,Sunny,0.0,44,10,1014,21,28,15,28,14,28,1
8/2/2009 10:00,28,11,NE,Sunny,0.0,43,10,1013,19,29,15,29,13,29,1
8/2/2009 11:00,29,10,NE,Sunny,0.0,41,10,1012,17,29,14,29,12,29,1
8/2/2009 12:00,29,9,NE,Sunny,0.0,39,10,1012,15,30,14,30,11,30,1
8/2/2009 13:00,28,9,ENE,Sunny,0.0,46,10,1012,18,28,15,28,12,28,1
8/2/2009 14:00,26,8,ENE,Sunny,0.0,54,10,1012,20,27,16,26,12,27,1
8/2/2009 15:00,24,8,E,Sunny,0.0,61,10,1012,23,26,16,25,13,26,1
8/2/2009 16:00,23,7,E,Sunny,0.0,67,10,1012,25,25,17,23,12,25,1
8/2/2009 17:00,22,7,E,Partly cloudy,0.0,72,10,1013,27,25,17,22,12,22,1
8/2/2009 18:00,21,6,ENE,Partly cloudy,0.0,78,10,1014,28,24,17,21,11,21,1
8/2/2009 19:00,20,6,ENE,Partly cloudy,0.0,83,10,1014,28,22,17,20,11,20,1
8/2/2009 20:00,19,6,ENE,Partly cloudy,0.0,87,10,1014,27,20,17,19,11,19,1
8/2/2009 21:00,18,5,NE,Partly cloudy,0.0,91,10,1014,27,18,17,18,10,18,1
8/2/2009 22:00,18,5,NE,Partly cloudy,0.0,93,7,1014,23,18,17,18,11,18,1
8/2/2009 23:00,17,5,ENE,Mist,0.0,94,5,1013,20,18,17,18,11,18,1
9/2/2009 00:00,17,5,ENE,Mist,0.0,96,2,1013,17,17,17,17,11,17,1
9/2/2009 01:00,16,6,NE,Mist,0.0,97,1,1013,45,17,17,17,12,17,1
9/2/2009 02:00,16,6,NE,Fog,0.0,97,1,1012,72,17,16,17,12,17,1
9/2/2009 03:00,16,6,NNE,Fog,0.0,97,0,1012,100,17,16,17,13,17,1
9/2/2009 04:00,18,6,NE,Fog,0.0,92,3,1013,69,19,17,18,11,18,1
9/2/2009 05:00,19,6,NE,Clear,0.0,87,7,1013,38,22,18,20,9,20,1
9/2/2009 06:00,21,6,ENE,Clear,0.0,81,10,1014,7,25,19,22,7,22,1
9/2/2009 07:00,24,8,NE,Sunny,0.0,68,10,1014,8,26,17,24,9,26,1
9/2/2009 08:00,26,10,NE,Sunny,0.0,54,10,1014,9,28,16,27,11,28,1
9/2/2009 09:00,29,12,NE,Sunny,0.0,41,10,1013,10,29,15,29,14,29,1
9/2/2009 10:00,30,11,NE,Sunny,0.0,39,10,1013,10,30,14,30,13,30,1
9/2/2009 11:00,30,10,NNE,Sunny,0.0,38,10,1012,11,30,14,31,12,30,1
9/2/2009 12:00,31,9,NNE,Sunny,0.0,36,10,1011,12,31,14,31,11,31,1
9/2/2009 13:00,29,8,NE,Sunny,0.0,45,10,1011,15,29,15,29,11,29,1
9/2/2009 14:00,26,7,NE,Sunny,0.0,53,10,1011,18,28,16,27,11,28,1
9/2/2009 15:00,24,6,NE,Sunny,0.0,62,10,1012,21,26,17,25,11,26,1
9/2/2009 16:00,23,7,NE,Sunny,0.0,66,10,1012,20,25,17,24,12,25,1
9/2/2009 17:00,22,7,ENE,Sunny,0.0,71,10,1013,18,25,17,23,12,25,1
9/2/2009 18:00,21,8,ENE,Sunny,0.0,75,10,1013,16,24,17,22,13,22,1
9/2/2009 19:00,20,8,ENE,Clear,0.0,80,10,1013,13,22,17,21,14,21,1
9/2/2009 20:00,19,8,ENE,Clear,0.0,85,10,1014,10,21,17,20,15,20,1
9/2/2009 21:00,18,8,ENE,Clear,0.0,89,10,1014,7,19,17,19,15,19,1
9/2/2009 22:00,17,7,E,Clear,0.0,91,7,1013,5,19,17,19,13,19,1
9/2/2009 23:00,17,6,E,Mist,0.0,93,5,1013,4,18,17,18,11,18,1
10/2/2009 00:00,16,5,E,Mist,0.0,95,2,1012,3,18,18,18,9,18,1
10/2/2009 01:00,16,6,E,Mist,0.0,95,2,1012,4,18,17,18,12,18,1
10/2/2009 02:00,16,8,ENE,Mist,0.0,95,2,1012,6,17,17,17,16,17,1
10/2/2009 03:00,16,9,NE,Mist,0.0,95,2,1012,7,17,16,17,19,17,1
10/2/2009 04:00,18,9,NE,Mist,0.0,89,5,1013,7,20,17,19,16,19,1
10/2/2009 05:00,20,8,NE,Clear,0.0,82,7,1013,7,22,18,21,12,21,1
10/2/2009 06:00,22,8,NE,Clear,0.0,76,10,1014,8,25,18,23,9,25,1
10/2/2009 07:00,24,9,NE,Sunny,0.0,65,10,1014,11,26,17,25,10,26,1
10/2/2009 08:00,27,9,NNE,Sunny,0.0,54,10,1014,14,28,16,27,11,28,1
10/2/2009 09:00,29,10,NNE,Sunny,0.0,43,10,1014,17,29,15,29,12,29,1
10/2/2009 10:00,28,8,NNE,Sunny,0.0,49,10,1013,21,29,16,28,9,29,1
10/2/2009 11:00,27,6,NNE,Partly cloudy,0.0,54,10,1012,24,28,17,27,7,28,1
10/2/2009 12:00,26,3,NNE,Partly cloudy,0.0,60,10,1011,28,27,18,26,5,27,1
10/2/2009 13:00,24,3,ENE,Partly cloudy,0.0,66,10,1011,34,26,18,25,6,26,1
10/2/2009 14:00,23,3,SE,Partly cloudy,0.0,71,10,1011,41,26,18,24,6,26,1
10/2/2009 15:00,22,4,S,Partly cloudy,0.0,76,10,1011,48,25,18,22,7,22,1
10/2/2009 16:00,21,3,SSE,Partly cloudy,0.0,79,10,1012,63,23,18,22,6,22,1
10/2/2009 17:00,21,3,SE,Overcast,0.0,81,10,1012,77,22,18,21,6,21,1
10/2/2009 18:00,21,3,ESE,Overcast,0.0,84,10,1012,92,21,18,21,5,21,1
10/2/2009 19:00,20,3,E,Overcast,0.0,85,10,1013,77,21,18,21,6,21,1
10/2/2009 20:00,20,4,ENE,Partly cloudy,0.0,86,10,1013,63,20,18,20,8,20,1
10/2/2009 21:00,20,5,NE,Partly cloudy,0.0,87,10,1014,48,20,18,20,9,20,1
10/2/2009 22:00,19,4,ENE,Partly cloudy,0.0,89,10,1013,42,20,18,20,8,20,1
10/2/2009 23:00,19,4,ENE,Partly cloudy,0.0,90,10,1013,37,19,18,19,7,19,1
11/2/2009 00:00,18,4,ENE,Partly cloudy,0.0,92,10,1012,31,19,18,19,7,19,1
11/2/2009 01:00,18,3,ENE,Partly cloudy,0.0,91,10,1012,30,19,18,19,7,19,1
11/2/2009 02:00,18,3,ENE,Partly cloudy,0.0,90,10,1012,30,19,18,19,6,19,1
11/2/2009 03:00,18,3,NE,Partly cloudy,0.0,90,10,1012,29,19,17,19,6,19,1
11/2/2009 04:00,19,4,NE,Partly cloudy,0.0,84,10,1012,27,21,17,20,6,20,1
11/2/2009 05:00,20,4,NE,Clear,0.0,79,10,1013,24,23,17,21,6,21,1
11/2/2009 06:00,21,4,NE,Clear,0.0,74,10,1013,21,25,17,22,6,22,1
11/2/2009 07:00,24,5,SE,Sunny,0.0,62,10,1013,19,27,16,25,7,27,1
11/2/2009 08:00,27,6,SW,Sunny,0.0,50,10,1013,16,29,16,28,7,29,1
11/2/2009 09:00,30,6,NW,Sunny,0.0,38,10,1012,14,31,15,31,7,31,1
11/2/2009 10:00,29,6,NW,Sunny,0.0,41,10,1012,15,30,15,30,8,30,1
11/2/2009 11:00,29,6,NW,Sunny,0.0,45,10,1011,16,30,16,29,8,30,1
11/2/2009 12:00,28,6,WNW,Sunny,0.0,49,10,1010,17,30,17,29,8,30,1
11/2/2009 13:00,26,4,SSW,Sunny,0.0,55,10,1010,21,28,17,27,6,28,1
11/2/2009 14:00,25,3,ESE,Partly cloudy,0.0,62,10,1010,26,27,17,25,4,27,1
11/2/2009 15:00,23,1,NNE,Partly cloudy,0.0,69,10,1010,30,25,18,24,2,25,1
11/2/2009 16:00,23,1,NE,Partly cloudy,0.0,72,10,1010,36,25,18,23,3,25,1
11/2/2009 17:00,22,2,NE,Partly cloudy,0.0,75,10,1011,42,25,18,23,4,25,1
11/2/2009 18:00,22,2,ENE,Partly cloudy,0.0,79,10,1011,47,25,18,22,4,22,1
11/2/2009 19:00,21,3,ENE,Partly cloudy,0.0,82,10,1012,38,23,18,21,6,21,1
11/2/2009 20:00,20,4,E,Clear,0.0,85,10,1012,30,22,18,21,8,21,1
11/2/2009 21:00,20,5,E,Clear,0.0,88,10,1012,21,20,18,20,10,20,1
11/2/2009 22:00,19,5,E,Clear,0.0,90,10,1012,16,20,18,20,10,20,1
11/2/2009 23:00,19,5,ESE,Clear,0.0,92,10,1012,11,20,19,20,9,20,1
12/2/2009 00:00,18,4,ESE,Clear,0.0,94,10,1011,5,20,19,20,8,20,1
12/2/2009 01:00,17,3,S,Clear,0.0,95,7,1011,37,19,18,19,6,19,1
12/2/2009 02:00,16,2,SW,Fog,0.0,96,3,1012,68,17,16,17,4,17,1
12/2/2009 03:00,15,1,WNW,Fog,0.0,98,0,1012,100,15,15,15,2,15,1
12/2/2009 04:00,18,2,W,Fog,0.0,89,3,1012,68,19,17,19,2,19,1
12/2/2009 05:00,21,2,WSW,Clear,0.0,80,7,1013,36,23,18,22,3,22,1
12/2/2009 06:00,24,3,WSW,Clear,0.0,72,10,1013,4,27,20,26,3,27,1
12/2/2009 07:00,26,4,W,Sunny,0.0,58,10,1013,5,28,18,28,5,28,1
12/2/2009 08:00,28,6,WNW,Sunny,0.0,45,10,1013,5,29,15,29,6,29,1
12/2/2009 09:00,30,7,NW,Sunny,0.0,31,10,1013,6,31,12,31,8,31,1
12/2/2009 10:00,30,8,NW,Sunny,0.0,33,10,1012,11,30,13,31,9,30,1
12/2/2009 11:00,30,8,NW,Sunny,0.0,34,10,1011,16,30,13,30,9,30,1
12/2/2009 12:00,30,9,NW,Sunny,0.0,36,10,1010,21,29,13,30,10,29,1
12/2/2009 13:00,28,7,NW,Sunny,0.0,40,10,1010,20,28,13,28,10,28,1
12/2/2009 14:00,26,6,NW,Sunny,0.0,45,10,1010,19,27,14,27,9,27,1
12/2/2009 15:00,25,5,NW,Sunny,0.0,50,10,1010,19,26,14,25,9,26,1
12/2/2009 16:00,24,4,SW,Sunny,0.0,55,10,1010,21,26,15,24,8,26,1
12/2/2009 17:00,23,4,ESE,Partly cloudy,0.0,61,10,1011,24,25,15,23,7,25,1
12/2/2009 18:00,22,3,N,Partly cloudy,0.0,66,10,1011,27,25,16,22,6,22,1
12/2/2009 19:00,21,3,NNE,Partly cloudy,0.0,75,10,1012,21,23,17,21,6,21,1
12/2/2009 20:00,19,3,NE,Clear,0.0,84,10,1012,16,21,17,20,7,20,1
12/2/2009 21:00,18,3,ENE,Clear,0.0,93,10,1013,10,19,18,19,7,19,1
12/2/2009 22:00,18,4,E,Clear,0.0,93,10,1012,8,19,18,19,8,19,1
12/2/2009 23:00,17,4,E,Clear,0.0,94,10,1012,6,19,18,19,8,19,1
13/2/2009 00:00,17,4,ESE,Clear,0.0,94,10,1011,4,19,18,19,9,19,1
13/2/2009 01:00,16,3,E,Clear,0.0,95,7,1011,36,18,17,18,7,18,1
13/2/2009 02:00,16,3,E,Fog,0.0,96,3,1011,68,17,16,17,6,17,1
13/2/2009 03:00,15,2,ENE,Fog,0.0,97,0,1011,100,15,15,15,4,15,1
13/2/2009 04:00,18,2,ENE,Fog,0.0,86,3,1011,67,20,17,19,4,19,1
13/2/2009 05:00,21,3,NE,Clear,0.0,76,7,1012,33,25,19,24,4,24,1
13/2/2009 06:00,24,4,NNE,Clear,0.0,65,10,1012,0,30,21,28,4,30,1
13/2/2009 07:00,26,5,SE,Sunny,0.0,53,10,1012,1,30,18,29,5,30,1
13/2/2009 08:00,29,6,WSW,Sunny,0.0,41,10,1012,2,31,15,31,6,31,1
13/2/2009 09:00,31,6,N,Sunny,0.0,29,10,1012,3,31,12,32,7,31,1
13/2/2009 10:00,31,8,N,Sunny,0.0,28,10,1011,3,31,11,32,9,31,1
13/2/2009 11:00,32,9,N,Sunny,0.0,26,10,1010,3,31,11,32,10,31,1
13/2/2009 12:00,32,10,N,Sunny,0.0,25,10,1009,3,31,10,33,12,31,1
13/2/2009 13:00,30,8,N,Sunny,0.0,32,10,1009,5,30,11,31,10,30,1
13/2/2009 14:00,28,6,N,Sunny,0.0,40,10,1009,7,28,13,28,8,28,1
13/2/2009 15:00,25,4,NNW,Sunny,0.0,48,10,1009,9,27,14,26,7,27,1
13/2/2009 16:00,24,3,WSW,Sunny,0.0,54,10,1010,12,26,15,25,7,26,1
13/2/2009 17:00,22,3,SSE,Sunny,0.0,60,10,1011,16,25,15,23,7,25,1
13/2/2009 18:00,21,3,ENE,Sunny,0.0,67,10,1011,20,24,15,22,7,22,1
13/2/2009 19:00,20,4,ENE,Clear,0.0,71,10,1011,20,23,15,21,9,21,1
13/2/2009 20:00,19,5,E,Clear,0.0,74,10,1012,20,21,15,20,11,20,1
13/2/2009 21:00,18,6,ESE,Clear,0.0,78,10,1012,20,19,15,19,13,19,1
13/2/2009 22:00,18,6,ESE,Clear,0.0,80,10,1011,15,19,15,19,13,19,1
13/2/2009 23:00,17,6,ESE,Clear,0.0,82,10,1011,11,19,15,19,13,19,1
14/2/2009 00:00,17,6,SE,Clear,0.0,84,10,1011,6,18,16,18,13,18,1
14/2/2009 01:00,16,5,ESE,Clear,0.0,87,10,1010,8,18,15,18,10,18,1
14/2/2009 02:00,15,4,ESE,Clear,0.0,90,10,1010,10,17,15,17,8,17,1
14/2/2009 03:00,15,3,ESE,Clear,0.0,93,10,1010,11,16,15,16,5,16,1
14/2/2009 04:00,18,3,ESE,Clear,0.0,79,10,1011,9,19,15,19,5,19,1
14/2/2009 05:00,21,3,E,Clear,0.0,64,10,1011,7,23,15,23,5,23,1
14/2/2009 06:00,24,4,E,Clear,0.0,50,10,1012,5,27,15,26,4,27,1
14/2/2009 07:00,26,5,ENE,Sunny,0.0,42,10,1012,3,28,13,28,5,28,1
14/2/2009 08:00,29,6,NNE,Sunny,0.0,34,10,1012,2,30,12,31,7,30,1
14/2/2009 09:00,31,7,N,Sunny,0.0,26,10,1011,0,32,11,33,8,32,1
14/2/2009 10:00,31,7,N,Sunny,0.0,25,10,1010,1,32,10,33,8,32,1
14/2/2009 11:00,32,8,N,Sunny,0.0,24,10,1010,2,31,10,33,9,31,1
14/2/2009 12:00,32,8,N,Sunny,0.0,23,10,1009,3,31,9,33,10,31,1
14/2/2009 13:00,30,8,NNE,Sunny,0.0,30,10,1009,4,30,10,31,11,30,1
14/2/2009 14:00,28,8,NNE,Sunny,0.0,37,10,1009,4,28,12,29,12,28,1
14/2/2009 15:00,26,8,NNE,Sunny,0.0,44,10,1009,5,27,14,27,14,27,1
14/2/2009 16:00,24,7,NE,Sunny,0.0,52,10,1009,5,26,14,25,13,26,1
14/2/2009 17:00,23,6,ENE,Sunny,0.0,60,10,1010,5,25,15,24,12,25,1
14/2/2009 18:00,21,6,E,Sunny,0.0,67,10,1011,6,25,16,22,11,22,1
14/2/2009 19:00,20,6,E,Clear,0.0,73,10,1011,5,23,16,21,11,21,1
14/2/2009 20:00,19,5,ESE,Clear,0.0,80,10,1011,5,21,16,20,11,20,1
14/2/2009 21:00,17,5,ESE,Clear,0.0,86,10,1012,4,19,16,19,11,19,1
14/2/2009 22:00,17,5,ESE,Clear,0.0,88,10,1011,4,19,17,19,11,19,1
14/2/2009 23:00,17,5,SE,Clear,0.0,90,10,1011,3,19,17,19,11,19,1
15/2/2009 00:00,17,5,SE,Clear,0.0,91,10,1011,3,19,18,19,11,19,1
15/2/2009 01:00,16,5,SE,Clear,0.0,92,10,1011,2,19,18,19,10,19,1
15/2/2009 02:00,16,5,SE,Clear,0.0,93,10,1010,1,19,18,19,9,19,1
15/2/2009 03:00,15,4,SE,Clear,0.0,94,10,1010,0,19,18,19,8,19,1
15/2/2009 04:00,18,4,ESE,Clear,0.0,83,10,1011,0,22,18,22,7,22,1
15/2/2009 05:00,21,5,ESE,Clear,0.0,72,10,1011,0,25,19,24,6,24,1
15/2/2009 06:00,24,5,ESE,Clear,0.0,61,10,1011,0,29,19,27,5,29,1
15/2/2009 07:00,26,5,ENE,Sunny,0.0,51,10,1011,1,30,17,29,6,30,1
15/2/2009 08:00,29,6,NE,Sunny,0.0,41,10,1011,3,31,15,31,7,31,1
15/2/2009 09:00,31,6,NNE,Sunny,0.0,32,10,1010,4,32,13,32,7,32,1
15/2/2009 10:00,31,7,SE,Sunny,0.0,31,10,1009,4,32,13,33,8,32,1
15/2/2009 11:00,32,7,WSW,Sunny,0.0,30,10,1009,5,32,13,33,8,32,1
15/2/2009 12:00,32,8,N,Sunny,0.0,29,10,1008,5,32,12,33,9,32,1
15/2/2009 13:00,30,8,NNW,Sunny,0.0,37,10,1008,9,30,13,30,11,30,1
15/2/2009 14:00,28,8,NNW,Sunny,0.0,44,10,1008,13,28,14,28,12,28,1
15/2/2009 15:00,25,8,NNW,Sunny,0.0,52,10,1008,17,27,15,26,14,27,1
15/2/2009 16:00,24,6,WSW,Sunny,0.0,62,10,1009,23,26,17,25,10,26,1
15/2/2009 17:00,23,4,SSE,Partly cloudy,0.0,72,10,1010,30,25,18,23,6,25,1
15/2/2009 18:00,22,1,ENE,Partly cloudy,0.0,82,10,1010,37,25,19,22,2,22,1
15/2/2009 19:00,21,2,ENE,Partly cloudy,0.0,85,10,1011,39,23,19,22,4,22,1
15/2/2009 20:00,21,3,ENE,Partly cloudy,0.0,87,10,1011,41,22,19,21,6,21,1
15/2/2009 21:00,21,